<?xml version="1.0" encoding="UTF-8"?>
<osm version="0.6" generator="Overpass API">
<note>The data included in this document is from www.openstreetmap.org. The data is made available under ODbL.</note>
<meta osm_base="2015-07-30T08:05:02Z"/>

  <node id="78669260" lat="37.1855391" lon="-3.7205175" version="1" timestamp="2007-10-18T23:40:43Z" changeset="251678" uid="8182" user="Cklein">
    <tag k="amenity" v="hospital"/>
    <tag k="created_by" v="JOSM"/>
  </node>
  <node id="266007946" lat="37.1899044" lon="-3.7121653" version="1" timestamp="2008-05-20T20:05:10Z" changeset="487787" uid="13417" user="Cklein79">
    <tag k="amenity" v="school"/>
    <tag k="name" v="Colegio Reyes Católicos"/>
  </node>
  <node id="301484733" lat="37.1904551" lon="-3.7123700" version="2" timestamp="2008-11-12T23:51:04Z" changeset="741477" uid="13417" user="Cklein79">
    <tag k="amenity" v="school"/>
    <tag k="name" v="Instituto"/>
  </node>
  <node id="304571631" lat="36.7465500" lon="-3.8791942" version="3" timestamp="2008-11-11T09:37:25Z" changeset="732916" uid="55462" user="Lübeck">
    <tag k="amenity" v="school"/>
    <tag k="name" v="Colegio San Miguel"/>
  </node>
  <node id="319090070" lat="36.7510317" lon="-4.0895318" version="1" timestamp="2008-12-15T21:38:56Z" changeset="408474" uid="82924" user="mtb-malaga">
    <tag k="amenity" v="hospital"/>
    <tag k="created_by" v="Merkaartor 0.12"/>
    <tag k="name" v="Hospital Comarcal de La Axarquía"/>
  </node>
  <node id="319285880" lat="36.7461993" lon="-4.0987708" version="3" timestamp="2013-07-01T11:01:35Z" changeset="16776116" uid="55462" user="Lübeck">
    <tag k="amenity" v="school"/>
    <tag k="name" v="Maria Zambrano"/>
  </node>
  <node id="319813945" lat="36.4435272" lon="-5.2687393" version="1" timestamp="2008-12-18T20:38:59Z" changeset="463266" uid="41190" user="UFeldmaus">
    <tag k="amenity" v="school"/>
    <tag k="name" v="Colegio publico Blas Infante"/>
  </node>
  <node id="320314496" lat="36.4613708" lon="-5.0560114" version="3" timestamp="2015-04-21T18:52:11Z" changeset="30387217" uid="220932" user="mor">
    <tag k="amenity" v="school"/>
    <tag k="name" v="Colegio Público Cancelada"/>
  </node>
  <node id="320936341" lat="36.4645421" lon="-5.0112202" version="1" timestamp="2008-12-22T17:26:22Z" changeset="553643" uid="41190" user="UFeldmaus">
    <tag k="amenity" v="school"/>
    <tag k="name" v="Mayfair Academy"/>
  </node>
  <node id="321211779" lat="36.5139780" lon="-4.8814300" version="2" timestamp="2011-08-16T23:58:56Z" changeset="9043697" uid="229489" user="jasonez">
    <tag k="amenity" v="school"/>
    <tag k="name" v="Colegio Primaria Federico Garcia Lorca"/>
  </node>
  <node id="321361601" lat="36.4654781" lon="-5.0273892" version="1" timestamp="2008-12-23T21:47:04Z" changeset="574470" uid="41190" user="UFeldmaus">
    <tag k="amenity" v="hospital"/>
    <tag k="name" v="Clinica Dental Benamara"/>
  </node>
  <node id="325941346" lat="36.7611583" lon="-3.9543871" version="1" timestamp="2009-01-04T18:16:53Z" changeset="732666" uid="55462" user="Lübeck">
    <tag k="amenity" v="school"/>
  </node>
  <node id="331350072" lat="36.7333404" lon="-3.6842358" version="1" timestamp="2009-01-11T22:19:28Z" changeset="773171" uid="13417" user="Cklein79">
    <tag k="amenity" v="hospital"/>
    <tag k="name" v="Centro de Salud"/>
  </node>
  <node id="366062480" lat="36.8789743" lon="-5.4054667" version="1" timestamp="2009-03-26T23:07:44Z" changeset="863458" uid="20587" user="balrog-kun">
    <tag k="amenity" v="school"/>
  </node>
  <node id="413098782" lat="36.5978862" lon="-4.5583851" version="7" timestamp="2012-06-12T12:25:30Z" changeset="11873862" uid="587069" user="rconde">
    <tag k="amenity" v="hospital"/>
    <tag k="designation" v="Xanit Hospital"/>
    <tag k="name" v="Xanit International Hospital"/>
  </node>
  <node id="430878882" lat="36.7549397" lon="-3.8741786" version="1" timestamp="2009-06-29T19:37:06Z" changeset="1680972" uid="55462" user="Lübeck">
    <tag k="amenity" v="hospital"/>
  </node>
  <node id="435135758" lat="37.3687464" lon="-5.9879626" version="1" timestamp="2009-07-06T10:06:50Z" changeset="1750997" uid="23167" user="Juan Toledo">
    <tag k="amenity" v="hospital"/>
    <tag k="name" v="Clínica de Fátima"/>
  </node>
  <node id="452130488" lat="36.7905042" lon="-4.9491325" version="2" timestamp="2015-03-26T18:13:37Z" changeset="29759925" uid="2512300" user="samely">
    <tag k="amenity" v="school"/>
  </node>
  <node id="493186220" lat="37.4067328" lon="-5.9865725" version="2" timestamp="2009-09-11T18:57:23Z" changeset="2449455" uid="23167" user="Juan Toledo">
    <tag k="amenity" v="hospital"/>
    <tag k="name" v="Hospital Universitario Virgen Macarena"/>
  </node>
  <node id="544476811" lat="37.2497540" lon="-3.7495022" version="1" timestamp="2009-10-29T13:04:46Z" changeset="2980835" uid="191460" user="rocio">
    <tag k="amenity" v="hospital"/>
    <tag k="name" v="Centro de Salud de Pinos Puente"/>
  </node>
  <node id="595570923" lat="36.4338412" lon="-5.1551766" version="1" timestamp="2009-12-18T09:51:33Z" changeset="3399244" uid="41190" user="UFeldmaus">
    <tag k="amenity" v="school"/>
  </node>
  <node id="596667086" lat="36.4666521" lon="-5.0166003" version="1" timestamp="2009-12-19T20:30:47Z" changeset="3409605" uid="41190" user="UFeldmaus">
    <tag k="amenity" v="school"/>
    <tag k="name" v="Grundschule Isdabe"/>
  </node>
  <node id="601364988" lat="36.5247314" lon="-5.0445901" version="1" timestamp="2009-12-30T07:23:25Z" changeset="3487480" uid="41190" user="UFeldmaus">
    <tag k="amenity" v="school"/>
    <tag k="name" v="Daidin"/>
  </node>
  <node id="616475031" lat="35.7844639" lon="-5.8212234" version="1" timestamp="2010-01-18T22:13:22Z" changeset="3654729" uid="220727" user="icherifm">
    <tag k="amenity" v="hospital"/>
    <tag k="name" v="Hopital Italien"/>
  </node>
  <node id="616475040" lat="35.7828189" lon="-5.8189811" version="1" timestamp="2010-01-18T22:13:22Z" changeset="3654729" uid="220727" user="icherifm">
    <tag k="amenity" v="school"/>
    <tag k="name" v="Al Amana"/>
  </node>
  <node id="616475063" lat="35.7840374" lon="-5.8195497" version="2" timestamp="2010-01-19T23:12:31Z" changeset="3663428" uid="220727" user="icherifm">
    <tag k="amenity" v="school"/>
    <tag k="name" v="Collège Maa al aâïnaïn"/>
  </node>
  <node id="616896645" lat="35.7755514" lon="-5.8118743" version="1" timestamp="2010-01-19T23:12:31Z" changeset="3663428" uid="220727" user="icherifm">
    <tag k="amenity" v="school"/>
    <tag k="name" v="Ecole Adrien Berchet"/>
  </node>
  <node id="617356468" lat="35.7764705" lon="-5.8241003" version="1" timestamp="2010-01-20T21:48:24Z" changeset="3670809" uid="220727" user="icherifm">
    <tag k="amenity" v="school"/>
    <tag k="name" v="American School Of Tangier"/>
  </node>
  <node id="617356481" lat="35.7806746" lon="-5.8222657" version="1" timestamp="2010-01-20T21:48:25Z" changeset="3670809" uid="220727" user="icherifm">
    <tag k="amenity" v="school"/>
    <tag k="name" v="Colegio Ramon y Cajal"/>
  </node>
  <node id="617868693" lat="35.7730733" lon="-5.8243613" version="1" timestamp="2010-01-21T22:04:32Z" changeset="3678816" uid="220727" user="icherifm">
    <tag k="amenity" v="school"/>
    <tag k="name" v="Centre Pedagogique Régional de Tanger"/>
  </node>
  <node id="622635355" lat="36.6377681" lon="-4.4886021" version="2" timestamp="2015-04-15T17:40:29Z" changeset="30245417" uid="2073852" user="SergioAstorga">
    <tag k="amenity" v="hospital"/>
    <tag k="name" v="Hospital Marítimo de Torremolinos"/>
  </node>
  <node id="663346826" lat="36.5964420" lon="-4.5390165" version="1" timestamp="2010-03-09T18:13:04Z" changeset="4083048" uid="96226" user="wonka68">
    <tag k="amenity" v="school"/>
  </node>
  <node id="676384716" lat="36.7025737" lon="-4.4389432" version="4" timestamp="2013-08-12T00:31:54Z" changeset="17310940" uid="253114" user="Pedrocrespo">
    <tag k="amenity" v="school"/>
    <tag k="name" v="Colegio Concertado San Patricio"/>
    <tag k="operator" v="FDE Santa María de La Victoria"/>
  </node>
  <node id="676384717" lat="36.7021422" lon="-4.4397690" version="2" timestamp="2015-05-15T06:49:32Z" changeset="31162254" uid="2894931" user="CPrados">
    <tag k="amenity" v="school"/>
    <tag k="name" v="Colegio Concertado Santa Luisa de Marillac"/>
  </node>
  <node id="676942468" lat="36.1272224" lon="-5.4484012" version="1" timestamp="2010-03-28T19:36:30Z" changeset="4261161" uid="238357" user="LW-Torrecilla">
    <tag k="amenity" v="school"/>
    <tag k="name" v="Instituto de Educacion Secundaria Ventura Morón"/>
  </node>
  <node id="726308715" lat="36.7055401" lon="-4.4365250" version="2" timestamp="2010-05-08T11:40:57Z" changeset="4638019" uid="253114" user="Pedrocrespo">
    <tag k="amenity" v="school"/>
    <tag k="name" v="CEIP Hogarsol"/>
  </node>
  <node id="726309221" lat="36.7043014" lon="-4.4364606" version="1" timestamp="2010-05-08T11:40:51Z" changeset="4638019" uid="253114" user="Pedrocrespo">
    <tag k="amenity" v="school"/>
    <tag k="name" v="IES Huelin"/>
  </node>
  <node id="726309801" lat="36.7038369" lon="-4.4356238" version="1" timestamp="2010-05-08T11:41:17Z" changeset="4638019" uid="253114" user="Pedrocrespo">
    <tag k="amenity" v="school"/>
    <tag k="name" v="CEIP Eduardo Ocón"/>
  </node>
  <node id="726325361" lat="36.7077764" lon="-4.4376730" version="1" timestamp="2010-05-08T11:49:28Z" changeset="4638019" uid="253114" user="Pedrocrespo">
    <tag k="amenity" v="school"/>
    <tag k="name" v="Colegio Padre Jacobo"/>
  </node>
  <node id="736472373" lat="36.5515823" lon="-4.6213666" version="2" timestamp="2010-05-28T12:54:02Z" changeset="4830643" uid="114310" user="Joe E">
    <tag k="amenity" v="school"/>
    <tag k="name" v="C. P. Inf. Pri. Acapulco"/>
  </node>
  <node id="736472528" lat="36.5511029" lon="-4.6221198" version="2" timestamp="2010-05-28T12:54:04Z" changeset="4830643" uid="114310" user="Joe E">
    <tag k="amenity" v="school"/>
    <tag k="name" v="I.E.S. Los Boliches"/>
  </node>
  <node id="738884915" lat="36.7544355" lon="-3.8755841" version="1" timestamp="2010-05-18T19:34:47Z" changeset="4742064" uid="55462" user="Lübeck">
    <tag k="amenity" v="school"/>
    <tag k="name" v="Instituto de Educación Secundaria Sierra Almijara"/>
  </node>
  <node id="747508754" lat="37.3933423" lon="-5.9904774" version="1" timestamp="2010-05-24T22:04:47Z" changeset="4799169" uid="291857" user="nonopp">
    <tag k="amenity" v="school"/>
    <tag k="name" v="Escuela San Francisco de Pauda"/>
  </node>
  <node id="747700775" lat="37.3941215" lon="-5.9893619" version="3" timestamp="2011-06-04T19:35:54Z" changeset="8342191" uid="291857" user="nonopp">
    <tag k="amenity" v="school"/>
    <tag k="name" v="Colegio primaria Angeles Guerrero"/>
  </node>
  <node id="748579305" lat="37.3920179" lon="-5.9827778" version="1" timestamp="2010-05-25T22:52:06Z" changeset="4808915" uid="291857" user="nonopp">
    <tag k="amenity" v="school"/>
  </node>
  <node id="750029071" lat="37.3987540" lon="-5.9789997" version="5" timestamp="2013-11-10T13:39:00Z" changeset="18815951" uid="524500" user="wheelmap_android">
    <tag k="amenity" v="hospital"/>
    <tag k="emergency" v="yes"/>
    <tag k="name" v="Centro de Salud Ronda Histórica"/>
    <tag k="wheelchair" v="yes"/>
  </node>
  <node id="752789323" lat="36.5555114" lon="-4.6199780" version="1" timestamp="2010-05-28T12:53:45Z" changeset="4830643" uid="114310" user="Joe E">
    <tag k="amenity" v="school"/>
    <tag k="name" v="I.E.S. Las Salinas"/>
  </node>
  <node id="760209341" lat="37.3051303" lon="-6.5939747" version="1" timestamp="2010-05-31T07:41:27Z" changeset="4860292" uid="291857" user="nonopp">
    <tag k="amenity" v="school"/>
  </node>
  <node id="763205547" lat="35.7361720" lon="-5.8938557" version="3" timestamp="2010-06-03T14:39:14Z" changeset="4893093" uid="295686" user="yasser00">
    <tag k="amenity" v="school"/>
    <tag k="name" v="FSTT"/>
  </node>
  <node id="807723014" lat="37.2736748" lon="-7.0003196" version="1" timestamp="2010-07-09T09:10:01Z" changeset="5172114" uid="316148" user="Kroy">
    <tag k="amenity" v="school"/>
  </node>
  <node id="807723029" lat="37.2738968" lon="-7.0034095" version="2" timestamp="2010-07-09T09:11:06Z" changeset="5172114" uid="316148" user="Kroy">
    <tag k="amenity" v="school"/>
  </node>
  <node id="828448007" lat="37.2655639" lon="-6.0648230" version="1" timestamp="2010-07-22T07:08:33Z" changeset="5284494" uid="318626" user="benjaminpuebla">
    <tag k="amenity" v="hospital"/>
    <tag k="historic" v="monument"/>
    <tag k="name" v="Centro de Salud"/>
  </node>
  <node id="836528519" lat="37.3868262" lon="-5.9755502" version="1" timestamp="2010-07-28T17:15:53Z" changeset="5339863" uid="291857" user="nonopp">
    <tag k="amenity" v="hospital"/>
    <tag k="emergency" v="yes"/>
    <tag k="name" v="Clinica Santa Isabel"/>
  </node>
  <node id="844187262" lat="37.3820940" lon="-6.0016489" version="1" timestamp="2010-08-02T22:30:53Z" changeset="5385566" uid="291857" user="nonopp">
    <tag k="amenity" v="school"/>
    <tag k="name" v="Escuela infantil Los Angelitos"/>
  </node>
  <node id="844747777" lat="37.3460742" lon="-5.9716099" version="2" timestamp="2012-01-19T22:51:41Z" changeset="10441535" uid="589660" user="SIVLEYELSERP">
    <tag k="amenity" v="hospital"/>
    <tag k="emergency" v="yes"/>
    <tag k="name" v="Hospital Vigil de Quiñones"/>
  </node>
  <node id="862023784" lat="37.1324999" lon="-6.4869737" version="1" timestamp="2010-08-15T22:09:13Z" changeset="5504948" uid="291857" user="nonopp">
    <tag k="amenity" v="school"/>
    <tag k="name" v="CI El Zampullín"/>
  </node>
  <node id="866820179" lat="36.6632337" lon="-4.7631927" version="2" timestamp="2013-06-23T22:29:11Z" changeset="16676980" uid="98964" user="RobChafer">
    <tag k="amenity" v="hospital"/>
    <tag k="name" v="Consultorio Médico"/>
  </node>
  <node id="866990387" lat="37.4925854" lon="-5.9406605" version="1" timestamp="2010-08-18T16:35:55Z" changeset="5528275" uid="74871" user="Antonio González">
    <tag k="amenity" v="school"/>
  </node>
  <node id="872716227" lat="36.1651116" lon="-5.3573912" version="1" timestamp="2010-08-21T21:57:18Z" changeset="5556244" uid="308077" user="antoniovj95">
    <tag k="amenity" v="school"/>
    <tag k="name" v="colegio publico andalucia"/>
  </node>
  <node id="872716229" lat="36.1655012" lon="-5.3583966" version="2" timestamp="2014-08-11T18:45:17Z" changeset="24685276" uid="308077" user="antoniovj95">
    <tag k="amenity" v="school"/>
    <tag k="name" v="El Rocio"/>
  </node>
  <node id="878998295" lat="36.7596386" lon="-3.6897755" version="1" timestamp="2010-08-25T16:12:03Z" changeset="5591084" uid="335691" user="gesief">
    <tag k="amenity" v="hospital"/>
    <tag k="name" v="Centro de Salud"/>
  </node>
  <node id="880437675" lat="37.3376571" lon="-6.0708802" version="1" timestamp="2010-08-26T11:18:41Z" changeset="5598100" uid="338538" user="Jesus Rodriguez">
    <tag k="amenity" v="school"/>
    <tag k="name" v="Maria"/>
  </node>
  <node id="885496782" lat="36.5370805" lon="-4.6253097" version="1" timestamp="2010-08-28T20:42:12Z" changeset="5620135" uid="326019" user="DavidSS">
    <tag k="amenity" v="school"/>
    <tag k="name" v="CC María Auxiliadora"/>
    <tag k="source" v="local_knowledge"/>
  </node>
  <node id="885500380" lat="36.5350547" lon="-4.6257925" version="1" timestamp="2010-08-28T20:43:23Z" changeset="5620135" uid="326019" user="DavidSS">
    <tag k="amenity" v="school"/>
    <tag k="name" v="CEIP Sohail"/>
    <tag k="source" v="local_knowledge"/>
  </node>
  <node id="886381285" lat="36.7622670" lon="-3.6903671" version="2" timestamp="2010-08-30T15:52:31Z" changeset="5637437" uid="335691" user="gesief">
    <tag k="amenity" v="school"/>
    <tag k="name" v="C.E.I.P. Arcos de Torrecuevas"/>
  </node>
  <node id="889210914" lat="36.7231690" lon="-4.4492502" version="7" timestamp="2015-03-03T16:22:13Z" changeset="29226525" uid="954316" user="jperezcasares">
    <tag k="amenity" v="hospital"/>
    <tag k="emergency" v="yes"/>
    <tag k="name" v="Hospital Regional Universitario de Málaga"/>
    <tag k="name:en" v="University Regional Hospital of Málaga"/>
  </node>
  <node id="909547357" lat="36.7876464" lon="-6.3411084" version="1" timestamp="2010-09-12T22:14:03Z" changeset="5765025" uid="345969" user="ec7aky">
    <tag k="amenity" v="school"/>
    <tag k="name" v="ies francisco pacheco"/>
  </node>
  <node id="909548837" lat="36.7880953" lon="-6.3407624" version="2" timestamp="2012-01-18T18:56:31Z" changeset="10430289" uid="589050" user="manuel brrera">
    <tag k="addr:housename" v="Ies Doñana"/>
    <tag k="addr:housenumber" v="43"/>
    <tag k="addr:postcode" v="11540"/>
    <tag k="addr:street" v="Avda. de Huelva"/>
    <tag k="amenity" v="school"/>
    <tag k="name" v="Ies Doñana"/>
  </node>
  <node id="914037702" lat="36.4312961" lon="-5.4464403" version="2" timestamp="2010-09-15T22:53:03Z" changeset="5791662" uid="176618" user="tuxpalm">
    <tag k="amenity" v="hospital"/>
  </node>
  <node id="914038551" lat="36.4308559" lon="-5.4464287" version="2" timestamp="2010-09-15T22:53:03Z" changeset="5791662" uid="176618" user="tuxpalm">
    <tag k="amenity" v="school"/>
  </node>
  <node id="933776000" lat="36.5941297" lon="-6.2436103" version="4" timestamp="2015-04-04T12:02:10Z" changeset="29970585" uid="2163609" user="CarlosMG">
    <tag k="amenity" v="school"/>
    <tag k="name" v="C.E.I.P. La Gaviota"/>
  </node>
  <node id="933776222" lat="36.5948942" lon="-6.2438006" version="4" timestamp="2013-02-07T15:40:19Z" changeset="14946332" uid="416641" user="jsoler">
    <tag k="amenity" v="school"/>
    <tag k="name" v="C.E.I.P. Pinar Hondo"/>
  </node>
  <node id="934976673" lat="36.4679162" lon="-5.0296779" version="1" timestamp="2010-10-02T13:28:04Z" changeset="5936221" uid="41190" user="UFeldmaus">
    <tag k="amenity" v="school"/>
    <tag k="name" v="The International Schhol of Estepona"/>
  </node>
  <node id="938362486" lat="37.3741775" lon="-5.9651587" version="1" timestamp="2010-10-05T10:29:15Z" changeset="5960085" uid="354632" user="Seyther">
    <tag k="amenity" v="school"/>
    <tag k="name" v="C.P. Ortiz de Zúñiga"/>
  </node>
  <node id="945203263" lat="36.9333710" lon="-4.5315711" version="1" timestamp="2010-10-11T16:07:18Z" changeset="6013116" uid="41190" user="UFeldmaus">
    <tag k="amenity" v="school"/>
    <tag k="name" v="Ciudad de Oscua"/>
  </node>
  <node id="945203576" lat="36.9329352" lon="-4.5338237" version="1" timestamp="2010-10-11T16:07:47Z" changeset="6013116" uid="41190" user="UFeldmaus">
    <tag k="amenity" v="school"/>
    <tag k="name" v="Manuel Romero"/>
  </node>
  <node id="945349458" lat="36.9342557" lon="-4.6825719" version="1" timestamp="2010-10-11T19:48:58Z" changeset="6015373" uid="41190" user="UFeldmaus">
    <tag k="amenity" v="school"/>
    <tag k="name" v="Nascania"/>
  </node>
  <node id="945652344" lat="36.5191060" lon="-5.3248844" version="1" timestamp="2010-10-12T07:19:31Z" changeset="6018183" uid="41190" user="UFeldmaus">
    <tag k="amenity" v="school"/>
    <tag k="name" v="Guzman el Bueno"/>
  </node>
  <node id="965216006" lat="36.7626260" lon="-5.4673478" version="1" timestamp="2010-10-25T19:23:56Z" changeset="6176588" uid="41190" user="UFeldmaus">
    <tag k="amenity" v="school"/>
    <tag k="name" v="Colegio Doctor Felix Rodriguez de la Fuente"/>
  </node>
  <node id="968027566" lat="36.5637878" lon="-5.2159038" version="1" timestamp="2010-10-28T16:09:57Z" changeset="6209954" uid="41190" user="UFeldmaus">
    <tag k="amenity" v="school"/>
    <tag k="name" v="Almazara"/>
  </node>
  <node id="968271443" lat="36.5449035" lon="-5.2365540" version="1" timestamp="2010-10-28T22:24:11Z" changeset="6212930" uid="41190" user="UFeldmaus">
    <tag k="amenity" v="school"/>
    <tag k="name" v="Colegio Publico Rural"/>
  </node>
  <node id="976566273" lat="36.7216762" lon="-5.2506524" version="1" timestamp="2010-11-04T14:18:20Z" changeset="6288867" uid="41190" user="UFeldmaus">
    <tag k="amenity" v="school"/>
    <tag k="name" v="Ntra Sra del Rosario"/>
  </node>
  <node id="979086820" lat="36.7362602" lon="-5.2501486" version="1" timestamp="2010-11-06T14:51:27Z" changeset="6303010" uid="41190" user="UFeldmaus">
    <tag k="amenity" v="school"/>
    <tag k="name" v="Colegio Virgen de la Concepción"/>
  </node>
  <node id="992985871" lat="37.0354463" lon="-4.7268569" version="2" timestamp="2013-11-14T14:24:21Z" changeset="18894599" uid="241061" user="Leonardo Velasco">
    <tag k="amenity" v="hospital"/>
    <tag k="name" v="Consultorio"/>
  </node>
  <node id="1007554259" lat="36.5636222" lon="-4.8554844" version="2" timestamp="2015-03-26T21:22:09Z" changeset="29764388" uid="2512300" user="samely">
    <tag k="amenity" v="school"/>
    <tag k="name" v="Colegio Los Llanos"/>
  </node>
  <node id="1008057869" lat="36.5102246" lon="-4.9548727" version="1" timestamp="2010-11-27T16:22:01Z" changeset="6471105" uid="41190" user="UFeldmaus">
    <tag k="amenity" v="school"/>
    <tag k="name" v="Aloha College"/>
  </node>
  <node id="1008871329" lat="37.2961922" lon="-6.2975593" version="2" timestamp="2010-11-27T21:09:46Z" changeset="6473362" uid="376267" user="daviladetena">
    <tag k="amenity" v="school"/>
    <tag k="name" v="IES Torre del Rey"/>
  </node>
  <node id="1013122082" lat="36.5834354" lon="-4.9513122" version="1" timestamp="2010-11-30T07:47:21Z" changeset="6492136" uid="41190" user="UFeldmaus">
    <tag k="amenity" v="school"/>
    <tag k="name" v="Colegio Francisco Ruiz"/>
  </node>
  <node id="1013122740" lat="36.5834057" lon="-4.9483451" version="1" timestamp="2010-11-30T07:47:44Z" changeset="6492136" uid="41190" user="UFeldmaus">
    <tag k="amenity" v="hospital"/>
    <tag k="name" v="Consultorio"/>
  </node>
  <node id="1017972050" lat="36.6557406" lon="-5.1292916" version="2" timestamp="2010-12-29T22:16:23Z" changeset="6804118" uid="41190" user="UFeldmaus">
    <tag k="amenity" v="hospital"/>
    <tag k="name" v="Consultorio"/>
  </node>
  <node id="1023146936" lat="36.5230978" lon="-5.0458518" version="1" timestamp="2010-12-05T17:18:39Z" changeset="6553575" uid="41190" user="UFeldmaus">
    <tag k="amenity" v="hospital"/>
    <tag k="name" v="Consultorio"/>
  </node>
  <node id="1024575997" lat="36.3772576" lon="-5.2522074" version="1" timestamp="2010-12-06T07:40:09Z" changeset="6559963" uid="41190" user="UFeldmaus">
    <tag k="amenity" v="school"/>
    <tag k="name" v="Colegio Pablo Picasso"/>
  </node>
  <node id="1024732786" lat="37.2350437" lon="-7.4480550" version="1" timestamp="2010-12-06T10:02:17Z" changeset="6561074" uid="347293" user="Alexmol">
    <tag k="amenity" v="school"/>
  </node>
  <node id="1025344558" lat="36.6319685" lon="-4.8290582" version="1" timestamp="2010-12-06T19:14:46Z" changeset="6567212" uid="41190" user="UFeldmaus">
    <tag k="amenity" v="school"/>
    <tag k="name" v="Colegio Remedios Rojo"/>
  </node>
  <node id="1025344591" lat="36.6311569" lon="-4.8325935" version="1" timestamp="2010-12-06T19:14:47Z" changeset="6567212" uid="41190" user="UFeldmaus">
    <tag k="amenity" v="hospital"/>
    <tag k="name" v="Centro de Salud"/>
  </node>
  <node id="1027186099" lat="36.6054458" lon="-5.2692200" version="1" timestamp="2010-12-07T21:16:08Z" changeset="6579843" uid="41190" user="UFeldmaus">
    <tag k="amenity" v="hospital"/>
    <tag k="name" v="Consultorio"/>
  </node>
  <node id="1028019468" lat="36.7155162" lon="-4.4533888" version="3" timestamp="2013-01-16T08:40:04Z" changeset="14669682" uid="55462" user="Lübeck">
    <tag k="addr:city" v="Málaga"/>
    <tag k="addr:postcode" v="29007"/>
    <tag k="addr:street" v="Calle del Corregidor Nicolás Isidro"/>
    <tag k="amenity" v="hospital"/>
    <tag k="fax" v="+34 952348100"/>
    <tag k="name" v="Clínica el Ángel"/>
    <tag k="phone" v="+34 952045000"/>
    <tag k="website" v="http://www.clinicaelangel.com"/>
  </node>
  <node id="1038397250" lat="36.6124500" lon="-5.1512164" version="1" timestamp="2010-12-14T17:40:25Z" changeset="6660518" uid="41190" user="UFeldmaus">
    <tag k="amenity" v="school"/>
    <tag k="name" v="Colegio Alto Genal"/>
  </node>
  <node id="1038397514" lat="36.6123325" lon="-5.1515693" version="1" timestamp="2010-12-14T17:40:39Z" changeset="6660518" uid="41190" user="UFeldmaus">
    <tag k="amenity" v="hospital"/>
    <tag k="name" v="Consultorio"/>
  </node>
  <node id="1039397105" lat="36.6312547" lon="-5.1208117" version="1" timestamp="2010-12-15T15:53:08Z" changeset="6668808" uid="41190" user="UFeldmaus">
    <tag k="amenity" v="school"/>
    <tag k="name" v="Colegio Santa Rosa"/>
  </node>
  <node id="1042542789" lat="37.0626101" lon="-5.8045565" version="2" timestamp="2015-04-04T01:45:09Z" changeset="29964097" uid="2163609" user="CarlosMG">
    <tag k="addr:city" v="El Palmar de Troya"/>
    <tag k="addr:postcode" v="41719"/>
    <tag k="amenity" v="school"/>
    <tag k="name" v="Escuela Pública"/>
  </node>
  <node id="1064561667" lat="36.7371899" lon="-3.9884425" version="1" timestamp="2010-12-25T19:58:44Z" changeset="6763581" uid="55462" user="Lübeck">
    <tag k="amenity" v="school"/>
  </node>
  <node id="1071642224" lat="36.6558414" lon="-5.1292199" version="1" timestamp="2010-12-29T22:14:03Z" changeset="6804118" uid="41190" user="UFeldmaus">
    <tag k="amenity" v="school"/>
    <tag k="name" v="Colegio Alto Genal"/>
  </node>
  <node id="1096418498" lat="37.9495897" lon="-6.1585719" version="2" timestamp="2011-01-11T16:49:06Z" changeset="6938722" uid="122237" user="zipi79">
    <tag k="amenity" v="school"/>
    <tag k="name" v="Colegio Público García Lorca"/>
  </node>
  <node id="1101459329" lat="36.7409335" lon="-4.0972329" version="1" timestamp="2011-01-13T08:10:44Z" changeset="6954761" uid="55462" user="Lübeck">
    <tag k="amenity" v="school"/>
    <tag k="name" v="Colegio National"/>
  </node>
  <node id="1115512830" lat="37.8816874" lon="-4.7840112" version="1" timestamp="2011-01-22T15:25:38Z" changeset="7051467" uid="360904" user="fmaestre">
    <tag k="amenity" v="school"/>
    <tag k="name" v="Colegio Santísima Trinidad I"/>
  </node>
  <node id="1115512840" lat="37.8825918" lon="-4.7841182" version="2" timestamp="2013-06-06T22:05:25Z" changeset="16450644" uid="53891" user="nubarron">
    <tag k="amenity" v="school"/>
    <tag k="name" v="Colegio Santísima Trinidad II"/>
  </node>
  <node id="1117007294" lat="36.7595593" lon="-5.3691581" version="1" timestamp="2011-01-23T15:45:58Z" changeset="7062837" uid="41190" user="UFeldmaus">
    <tag k="amenity" v="school"/>
    <tag k="name" v="Las Cumbres"/>
  </node>
  <node id="1118777267" lat="37.9094871" lon="-4.7784868" version="3" timestamp="2013-07-12T18:09:17Z" changeset="16927000" uid="290680" user="wheelmap_visitor">
    <tag k="amenity" v="school"/>
    <tag k="name" v="C.E.I.P. José Torre del Cerro"/>
    <tag k="source" v="pnoa"/>
    <tag k="source:date" v="2009"/>
    <tag k="wheelchair" v="limited"/>
  </node>
  <node id="1122304070" lat="36.7619545" lon="-3.8713059" version="1" timestamp="2011-01-26T19:55:08Z" changeset="7097169" uid="55462" user="Lübeck">
    <tag k="amenity" v="school"/>
    <tag k="name" v="Colegio El Badén"/>
  </node>
  <node id="1142791597" lat="37.3428066" lon="-5.9747293" version="2" timestamp="2012-01-19T22:57:08Z" changeset="10441535" uid="589660" user="SIVLEYELSERP">
    <tag k="amenity" v="hospital"/>
    <tag k="is_in:continent" v="Europe"/>
    <tag k="is_in:country" v="Spain"/>
    <tag k="is_in:municipality" v="Sevilla"/>
    <tag k="is_in:province" v="Sevilla"/>
    <tag k="is_in:region" v="Andalucía"/>
    <tag k="name" v="SS SEVILLA 8 (Fremap)"/>
    <tag k="note" v="This is a point from an official vertical network. Use it as a reference, but do NOT move it."/>
    <tag k="rednap:altitudortometrica" v="8.07891"/>
    <tag k="rednap:codigoine" v="41091"/>
    <tag k="rednap:ficha" v="ftp://ftp.geodesia.ign.es/REDNAP/Lin00632/632012.pdf"/>
    <tag k="rednap:grupo" v="0"/>
    <tag k="rednap:latitud" v="37.3434976583333"/>
    <tag k="rednap:longitud" v="-5.97401610277778"/>
    <tag k="rednap:nodo" v="no"/>
    <tag k="rednap:numero" v="632012"/>
    <tag k="rednap:posicion" v="Vertical"/>
    <tag k="rednap:tipo" v="SECUNDARIA"/>
    <tag k="source" v="© Instituto Geográfico Nacional 2011"/>
    <tag k="source:name" v="Red de Nivelación de Alta Precisión"/>
    <tag k="source:wfs" v="http://www.idee.es/IGN-WFS-Geodesia/ogcwebservice"/>
  </node>
  <node id="1159698018" lat="37.9099901" lon="-4.8009869" version="3" timestamp="2012-11-29T14:29:02Z" changeset="14087119" uid="40397" user="Zartbitter">
    <tag k="amenity" v="school"/>
    <tag k="name" v="Colegio La Salle"/>
  </node>
  <node id="1160010305" lat="37.9107509" lon="-4.7782459" version="1" timestamp="2011-02-18T21:31:54Z" changeset="7326704" uid="395381" user="loladaimiel">
    <tag k="amenity" v="school"/>
    <tag k="name" v="Colegio San Acisclo y Santa Victoria"/>
  </node>
  <node id="1161266035" lat="37.9106213" lon="-4.7849441" version="2" timestamp="2011-02-19T18:06:25Z" changeset="7334619" uid="395381" user="loladaimiel">
    <tag k="amenity" v="school"/>
    <tag k="name" v="Colegio Calasancio de Madres Escolapias"/>
  </node>
  <node id="1161266061" lat="37.9166500" lon="-4.8011819" version="2" timestamp="2012-11-29T14:29:03Z" changeset="14087119" uid="40397" user="Zartbitter">
    <tag k="amenity" v="school"/>
    <tag k="name" v="Escuela Infantil Los Globos"/>
  </node>
  <node id="1161266303" lat="37.9126201" lon="-4.7994575" version="2" timestamp="2012-11-29T14:29:03Z" changeset="14087119" uid="40397" user="Zartbitter">
    <tag k="amenity" v="school"/>
    <tag k="name" v="Escuela de Educación Infantil Giner de los Rios"/>
  </node>
  <node id="1161878840" lat="37.9121514" lon="-4.7941528" version="1" timestamp="2011-02-19T18:36:16Z" changeset="7334907" uid="395381" user="loladaimiel">
    <tag k="amenity" v="school"/>
    <tag k="name" v="Colegio Bética Mudarra"/>
  </node>
  <node id="1161878876" lat="37.9146022" lon="-4.7949520" version="1" timestamp="2011-02-19T18:36:17Z" changeset="7334907" uid="395381" user="loladaimiel">
    <tag k="amenity" v="school"/>
    <tag k="name" v="Colegio El Encinar"/>
  </node>
  <node id="1183458607" lat="36.5992392" lon="-6.2345176" version="2" timestamp="2015-01-26T22:54:56Z" changeset="28430672" uid="2221122" user="Ale Renedo">
    <tag k="amenity" v="school"/>
    <tag k="name" v="SAFA San Luis"/>
    <tag k="source" v="local_knowledge"/>
  </node>
  <node id="1183458615" lat="36.5899137" lon="-6.2326380" version="2" timestamp="2013-02-07T16:32:19Z" changeset="14946835" uid="416641" user="jsoler">
    <tag k="amenity" v="school"/>
    <tag k="name" v="C.E.I.P. José Luis Poullet"/>
  </node>
  <node id="1183458622" lat="36.5888561" lon="-6.2323565" version="2" timestamp="2014-09-04T01:01:44Z" changeset="25217370" uid="1712104" user="JacobT13">
    <tag k="amenity" v="school"/>
  </node>
  <node id="1185551587" lat="36.5827143" lon="-4.5366528" version="2" timestamp="2012-02-11T21:58:49Z" changeset="10657921" uid="587069" user="rconde">
    <tag k="amenity" v="hospital"/>
    <tag k="emergency" v="no"/>
    <tag k="name" v="Ambulatorio Torrequebrada"/>
  </node>
  <node id="1189489857" lat="36.5079972" lon="-4.8265712" version="2" timestamp="2012-04-08T18:15:33Z" changeset="11228885" uid="652020" user="Denkel">
    <tag k="amenity" v="hospital"/>
    <tag k="emergency" v="yes"/>
    <tag k="name" v="Costa del Sol"/>
  </node>
  <node id="1207097361" lat="36.5129708" lon="-4.8858514" version="1" timestamp="2011-03-18T09:15:01Z" changeset="7593126" uid="416551" user="lamoradamashermosa">
    <tag k="amenity" v="hospital"/>
  </node>
  <node id="1221087824" lat="36.5331144" lon="-6.3025302" version="3" timestamp="2011-06-24T16:26:40Z" changeset="8534575" uid="416553" user="Innocturion">
    <tag k="amenity" v="hospital"/>
    <tag k="name" v="Clínica San Rafael de Cádiz"/>
    <tag k="website" v="http://www.josemanuelpascualpascual.com/index.php?option=com_content&amp;view=article&amp;id=29&amp;Itemid=23&amp;lang=en"/>
  </node>
  <node id="1222997201" lat="37.7705079" lon="-3.8179308" version="1" timestamp="2011-03-28T10:16:56Z" changeset="7695166" uid="395941" user="Jorge Juan">
    <tag k="amenity" v="hospital"/>
    <tag k="name" v="Hospital El Neveral"/>
  </node>
  <node id="1240950110" lat="36.7002193" lon="-5.4217985" version="1" timestamp="2011-04-11T14:00:05Z" changeset="7833445" uid="41190" user="UFeldmaus">
    <tag k="amenity" v="hospital"/>
    <tag k="name" v="Consultorio"/>
  </node>
  <node id="1244023272" lat="36.5517042" lon="-5.2765509" version="1" timestamp="2011-04-14T06:19:08Z" changeset="7857845" uid="41190" user="UFeldmaus">
    <tag k="amenity" v="hospital"/>
    <tag k="name" v="Consultorio"/>
  </node>
  <node id="1251192548" lat="36.5509013" lon="-5.2727653" version="2" timestamp="2012-04-11T11:18:47Z" changeset="11263719" uid="41190" user="UFeldmaus">
    <tag k="amenity" v="school"/>
    <tag k="name" v="Colegio Publico Sierra del Espino"/>
  </node>
  <node id="1258765926" lat="36.6216543" lon="-5.3393710" version="1" timestamp="2011-04-24T21:08:43Z" changeset="7957158" uid="41190" user="UFeldmaus">
    <tag k="amenity" v="hospital"/>
    <tag k="name" v="Consultorio"/>
  </node>
  <node id="1258766023" lat="36.6204157" lon="-5.3396627" version="1" timestamp="2011-04-24T21:08:45Z" changeset="7957158" uid="41190" user="UFeldmaus">
    <tag k="amenity" v="school"/>
    <tag k="name" v="Colegio Publico Na Sra del Rosario"/>
  </node>
  <node id="1262072516" lat="36.6521883" lon="-5.2747010" version="1" timestamp="2011-04-27T12:54:21Z" changeset="7984843" uid="41190" user="UFeldmaus">
    <tag k="amenity" v="hospital"/>
    <tag k="name" v="Consultorio"/>
  </node>
  <node id="1262072638" lat="36.6522109" lon="-5.2745761" version="1" timestamp="2011-04-27T12:54:35Z" changeset="7984843" uid="41190" user="UFeldmaus">
    <tag k="amenity" v="school"/>
    <tag k="name" v="Colegio Publico Valle de Guadiario"/>
  </node>
  <node id="1275649351" lat="37.2919039" lon="-5.9137862" version="1" timestamp="2011-05-07T09:43:03Z" changeset="8071930" uid="335661" user="Rickydh">
    <tag k="amenity" v="school"/>
    <tag k="name" v="Valme Coronada"/>
  </node>
  <node id="1281960184" lat="36.7913677" lon="-3.8991548" version="2" timestamp="2011-05-12T19:27:16Z" changeset="8125557" uid="55462" user="Lübeck">
    <tag k="amenity" v="school"/>
    <tag k="name" v="Enrique Gines"/>
  </node>
  <node id="1283650555" lat="37.6932894" lon="-6.5975386" version="2" timestamp="2013-02-22T19:58:39Z" changeset="15127974" uid="3584" user="gpesquero">
    <tag k="amenity" v="hospital"/>
    <tag k="name" v="Hospital de Riotinto"/>
    <tag k="source" v="survey"/>
  </node>
  <node id="1286207539" lat="37.7795316" lon="-3.8071849" version="1" timestamp="2011-05-15T11:51:14Z" changeset="8150349" uid="454784" user="Rlinx">
    <tag k="amenity" v="school"/>
    <tag k="name" v="CP Navas de Tolosa"/>
  </node>
  <node id="1286207550" lat="37.7812784" lon="-3.8048192" version="1" timestamp="2011-05-15T11:51:15Z" changeset="8150349" uid="454784" user="Rlinx">
    <tag k="amenity" v="school"/>
    <tag k="name" v="IES Las Fuentezuelas"/>
  </node>
  <node id="1286207554" lat="37.7790864" lon="-3.8031991" version="1" timestamp="2011-05-15T11:51:15Z" changeset="8150349" uid="454784" user="Rlinx">
    <tag k="amenity" v="school"/>
    <tag k="name" v="CP Serrano de Haro"/>
  </node>
  <node id="1314998517" lat="37.2862632" lon="-5.9443396" version="1" timestamp="2011-06-07T11:56:11Z" changeset="8369281" uid="235316" user="jacksparrow">
    <tag k="amenity" v="school"/>
    <tag k="name" v="Colegio La Motilla"/>
  </node>
  <node id="1315131338" lat="37.3280915" lon="-5.9663779" version="1" timestamp="2011-06-07T14:49:15Z" changeset="8370696" uid="235316" user="jacksparrow">
    <tag k="amenity" v="school"/>
    <tag k="name" v="Colegio Santa Ana"/>
  </node>
  <node id="1315133835" lat="37.3257070" lon="-5.9645755" version="1" timestamp="2011-06-07T14:54:42Z" changeset="8370696" uid="235316" user="jacksparrow">
    <tag k="amenity" v="hospital"/>
    <tag k="name" v="Centro de Salud Bellavista"/>
  </node>
  <node id="1315163958" lat="37.3281551" lon="-5.9711384" version="1" timestamp="2011-06-07T15:28:51Z" changeset="8371126" uid="235316" user="jacksparrow">
    <tag k="amenity" v="school"/>
  </node>
  <node id="1324269874" lat="37.3366897" lon="-5.8361763" version="1" timestamp="2011-06-13T20:28:55Z" changeset="8431214" uid="469790" user="loqu">
    <tag k="amenity" v="hospital"/>
    <tag k="emergency" v="no"/>
    <tag k="name" v="Centro de Especialidades Nuestra Señora de la Oliva"/>
  </node>
  <node id="1324404160" lat="36.4683733" lon="-6.1907375" version="2" timestamp="2014-04-25T11:46:28Z" changeset="21929235" uid="2047309" user="Correcaminos1954">
    <tag k="addr:city" v="San Fernando"/>
    <tag k="addr:postcode" v="11100"/>
    <tag k="addr:street" v="avenida del Cid"/>
    <tag k="amenity" v="hospital"/>
    <tag k="emergency" v="yes"/>
    <tag k="name" v="Centro de Cayetano Roldán"/>
  </node>
  <node id="1360812246" lat="37.3826209" lon="-6.5523921" version="1" timestamp="2011-07-13T20:09:00Z" changeset="8716316" uid="488271" user="chemipp">
    <tag k="amenity" v="school"/>
    <tag k="name" v="Colegio Salesiano"/>
  </node>
  <node id="1367893795" lat="35.7781730" lon="-5.8282097" version="1" timestamp="2011-07-20T14:17:38Z" changeset="8779082" uid="492687" user="charafcs">
    <tag k="amenity" v="hospital"/>
    <tag k="emergency" v="yes"/>
    <tag k="name" v="Hopital Mohammed V"/>
  </node>
  <node id="1383066555" lat="36.7181092" lon="-4.1965778" version="1" timestamp="2011-08-02T14:22:42Z" changeset="8901186" uid="499052" user="flightsimjoe">
    <tag k="amenity" v="hospital"/>
    <tag k="designation" v="General medicine"/>
    <tag k="emergency" v="yes"/>
    <tag k="name" v="Cetro de Salud"/>
    <tag k="source" v="Local knowledge"/>
  </node>
  <node id="1383068891" lat="36.7185536" lon="-4.1968260" version="4" timestamp="2013-01-15T10:49:39Z" changeset="14659233" uid="55462" user="Lübeck">
    <tag k="addr:postcode" v="29790"/>
    <tag k="amenity" v="school"/>
    <tag k="source" v="Local knowledge"/>
  </node>
  <node id="1384895915" lat="36.7188258" lon="-4.1732775" version="3" timestamp="2012-11-22T13:49:15Z" changeset="13985765" uid="55462" user="Lübeck">
    <tag k="addr:postcode" v="29790"/>
    <tag k="amenity" v="school"/>
    <tag k="source" v="Local knowledge"/>
  </node>
  <node id="1400504967" lat="36.5168596" lon="-4.8758571" version="1" timestamp="2011-08-16T01:04:50Z" changeset="9032631" uid="229489" user="jasonez">
    <tag k="amenity" v="school"/>
    <tag k="name" v="CEIP 5 de Noviembre"/>
  </node>
  <node id="1400504971" lat="36.5155396" lon="-4.8764920" version="1" timestamp="2011-08-16T01:04:50Z" changeset="9032631" uid="229489" user="jasonez">
    <tag k="amenity" v="school"/>
    <tag k="name" v="CEIP Miguel de Cervantes"/>
  </node>
  <node id="1400511506" lat="36.5155303" lon="-4.8828150" version="1" timestamp="2011-08-16T01:23:43Z" changeset="9032671" uid="229489" user="jasonez">
    <tag k="amenity" v="school"/>
    <tag k="name" v="CEIP Vicente Aleixandre"/>
  </node>
  <node id="1400856598" lat="36.9740896" lon="-4.1399513" version="1" timestamp="2011-08-16T10:02:15Z" changeset="9035099" uid="216297" user="dinazafarraya">
    <tag k="amenity" v="hospital"/>
    <tag k="emergency" v="yes"/>
    <tag k="name" v="Centro de Salud"/>
  </node>
  <node id="1405106343" lat="36.5147382" lon="-4.8778276" version="1" timestamp="2011-08-20T01:58:16Z" changeset="9070722" uid="229489" user="jasonez">
    <tag k="amenity" v="hospital"/>
    <tag k="name" v="Cruz Roja"/>
  </node>
  <node id="1405106346" lat="36.5109137" lon="-4.9060407" version="2" timestamp="2012-03-15T14:47:14Z" changeset="10989159" uid="41190" user="UFeldmaus">
    <tag k="amenity" v="school"/>
    <tag k="name" v="Instituto Guadalpín"/>
  </node>
  <node id="1406985863" lat="37.2782425" lon="-6.9353014" version="1" timestamp="2011-08-21T12:15:42Z" changeset="9083116" uid="507232" user="vmmcaro">
    <tag k="amenity" v="school"/>
  </node>
  <node id="1407657369" lat="37.2785991" lon="-6.9317449" version="1" timestamp="2011-08-21T21:32:30Z" changeset="9089150" uid="507232" user="vmmcaro">
    <tag k="amenity" v="school"/>
  </node>
  <node id="1420790152" lat="37.2830414" lon="-5.9303073" version="1" timestamp="2011-09-02T09:37:59Z" changeset="9191592" uid="235316" user="jacksparrow">
    <tag k="amenity" v="school"/>
    <tag k="name" v="Colegio Cervantes"/>
  </node>
  <node id="1420790154" lat="37.2822561" lon="-5.9320346" version="1" timestamp="2011-09-02T09:37:59Z" changeset="9191592" uid="235316" user="jacksparrow">
    <tag k="amenity" v="school"/>
  </node>
  <node id="1433868032" lat="36.1431640" lon="-5.3594449" version="2" timestamp="2015-04-07T00:25:43Z" changeset="30029342" uid="2163609" user="CarlosMG">
    <tag k="addr:city" v="Gibraltar"/>
    <tag k="amenity" v="hospital"/>
    <tag k="emergency" v="yes"/>
    <tag k="name" v="St Bernard's Hospital"/>
  </node>
  <node id="1446269043" lat="37.2675435" lon="-4.8282052" version="1" timestamp="2011-09-26T14:21:42Z" changeset="9402443" uid="122428" user="Ogre">
    <tag k="amenity" v="hospital"/>
    <tag k="name" v="Centro de Salud"/>
  </node>
  <node id="1462810048" lat="37.8408260" lon="-5.7652991" version="1" timestamp="2011-10-11T17:00:56Z" changeset="9532261" uid="533996" user="ManuGR">
    <tag k="amenity" v="school"/>
    <tag k="name" v="IES Anibal González"/>
    <tag k="source" v="PNOA"/>
  </node>
  <node id="1502034982" lat="36.6087619" lon="-4.5358163" version="1" timestamp="2011-11-13T20:41:15Z" changeset="9818908" uid="553645" user="LesliePiper">
    <tag k="addr:postcode" v="29631"/>
    <tag k="addr:street" v="Avda. Inamculada Concepción"/>
    <tag k="amenity" v="school"/>
    <tag k="designation" v="Infantial y Primaria"/>
    <tag k="name" v="CEPI  Miguel Hernández"/>
  </node>
  <node id="1512451590" lat="35.5690794" lon="-5.3803532" version="2" timestamp="2011-12-07T03:52:52Z" changeset="10054964" uid="552344" user="sinplomo">
    <tag k="amenity" v="school"/>
    <tag k="name" v="IEES Nuestra Señora del Pilar"/>
  </node>
  <node id="1512451604" lat="35.5729541" lon="-5.3775208" version="2" timestamp="2011-12-07T03:52:52Z" changeset="10054964" uid="552344" user="sinplomo">
    <tag k="amenity" v="school"/>
    <tag k="name" v="CEEP Jacinto Benavente"/>
  </node>
  <node id="1516411417" lat="37.1174154" lon="-5.4544576" version="2" timestamp="2012-09-18T21:48:20Z" changeset="13162062" uid="559491" user="MIGUEL ANGEL">
    <tag k="amenity" v="hospital"/>
    <tag k="emergency" v="yes"/>
    <tag k="name" v="RESIDENCIA SAN FRANCISCO"/>
  </node>
  <node id="1519479227" lat="37.1902164" lon="-7.4184721" version="2" timestamp="2014-01-20T17:45:55Z" changeset="20107899" uid="1864530" user="SGU">
    <tag k="addr:city" v="Vila real de Santo António"/>
    <tag k="addr:housename" v="Centro de Saúde Vila Real de Santo António"/>
    <tag k="addr:housenumber" v="S/N"/>
    <tag k="addr:postcode" v="8900-211"/>
    <tag k="addr:street" v="Avenida Ministro Duarte Pacheco"/>
    <tag k="amenity" v="hospital"/>
    <tag k="emergency" v="yes"/>
    <tag k="name" v="Centro de Saúde Vila Real de Santo António"/>
    <tag k="website" v="http://www.portaldasaude.pt/portal/servicos/prestadoresV2/?providerid=5687"/>
  </node>
  <node id="1519479228" lat="37.1909555" lon="-7.4192688" version="2" timestamp="2014-01-20T17:45:55Z" changeset="20107899" uid="1864530" user="SGU">
    <tag k="addr:city" v="Vila real de Santo António"/>
    <tag k="addr:housename" v="Escola Básica 2, 3 D. José I"/>
    <tag k="addr:postcode" v="8900-275"/>
    <tag k="addr:street" v="Rua de Santo António de Arenilha"/>
    <tag k="amenity" v="school"/>
    <tag k="name" v="Escola Básica 2, 3 D. José I"/>
    <tag k="phone" v="281 510 150"/>
  </node>
  <node id="1544888386" lat="37.7784604" lon="-3.8006025" version="2" timestamp="2012-05-02T10:27:48Z" changeset="11478000" uid="324401" user="juasmilla">
    <tag k="amenity" v="school"/>
    <tag k="name" v="CP Ramón Calatayud"/>
  </node>
  <node id="1544888402" lat="37.7797945" lon="-3.8034925" version="1" timestamp="2011-12-13T21:12:35Z" changeset="10111091" uid="569128" user="Edu7">
    <tag k="addr:street" v="Av. de Arjona"/>
    <tag k="amenity" v="school"/>
    <tag k="name" v="IES Az-Zait"/>
  </node>
  <node id="1560751674" lat="36.1110707" lon="-5.4442906" version="2" timestamp="2013-07-04T00:23:20Z" changeset="16814910" uid="587812" user="jpereza">
    <tag k="amenity" v="hospital"/>
    <tag k="emergency" v="yes"/>
    <tag k="name" v="Hospital Punta Europa"/>
  </node>
  <node id="1566949162" lat="37.7705427" lon="-3.7856491" version="3" timestamp="2011-12-29T17:08:03Z" changeset="10237298" uid="576336" user="JAPC">
    <tag k="amenity" v="school"/>
    <tag k="name" v="Colegio Público Alcalá Venceslada"/>
  </node>
  <node id="1568359217" lat="36.4198041" lon="-6.1426771" version="3" timestamp="2013-01-03T18:57:15Z" changeset="14516693" uid="570548" user="chiclana1990">
    <tag k="amenity" v="hospital"/>
    <tag k="name" v="Centro de salud Padre Salado"/>
  </node>
  <node id="1570029046" lat="37.0241113" lon="-4.5673243" version="2" timestamp="2011-12-30T23:05:15Z" changeset="10250692" uid="577427" user="Angel Velasco">
    <tag k="amenity" v="school"/>
  </node>
  <node id="1578854534" lat="35.2389099" lon="-3.9389011" version="1" timestamp="2012-01-05T23:38:06Z" changeset="10306767" uid="578772" user="alain2003">
    <tag k="amenity" v="hospital"/>
    <tag k="name" v="Hopital Mohamed 5"/>
  </node>
  <node id="1595398500" lat="37.8889205" lon="-4.7924656" version="1" timestamp="2012-01-17T21:22:39Z" changeset="10422365" uid="587998" user="davidpl1985">
    <tag k="amenity" v="school"/>
    <tag k="name" v="Colegio Nuñez Herrera"/>
  </node>
  <node id="1596542299" lat="35.5867664" lon="-5.3469081" version="1" timestamp="2012-01-18T18:25:39Z" changeset="10429858" uid="578772" user="alain2003">
    <tag k="amenity" v="hospital"/>
    <tag k="name" v="Clinique Rif"/>
  </node>
  <node id="1596587791" lat="36.7744138" lon="-6.3457247" version="2" timestamp="2014-08-08T07:04:06Z" changeset="24609533" uid="2244118" user="fjtorres">
    <tag k="amenity" v="school"/>
    <tag k="name" v="Colegio Blas Infante"/>
  </node>
  <node id="1597731492" lat="36.7012468" lon="-4.4476953" version="3" timestamp="2014-05-16T10:46:44Z" changeset="22369099" uid="818180" user="JavierGuillen">
    <tag k="amenity" v="hospital"/>
    <tag k="name" v="Centro de Salud San Andrés Torcal"/>
  </node>
  <node id="1598299638" lat="37.3463294" lon="-5.9729324" version="2" timestamp="2014-07-28T14:38:20Z" changeset="24403396" uid="524500" user="wheelmap_android">
    <tag k="amenity" v="hospital"/>
    <tag k="name" v="Centro de Salud"/>
    <tag k="wheelchair" v="yes"/>
  </node>
  <node id="1598993333" lat="36.5991554" lon="-4.5579098" version="2" timestamp="2012-06-12T12:25:30Z" changeset="11873862" uid="587069" user="rconde">
    <tag k="amenity" v="hospital"/>
    <tag k="name" v="Hospital Alta Resolucion de Benalmadena"/>
  </node>
  <node id="1607784321" lat="36.7325372" lon="-4.5326957" version="1" timestamp="2012-01-27T20:15:08Z" changeset="10515923" uid="595127" user="Colmenarejobike">
    <tag k="amenity" v="school"/>
    <tag k="name" v="Colegio de colmenarejo"/>
  </node>
  <node id="1614717839" lat="36.5997076" lon="-4.5362837" version="2" timestamp="2012-02-01T21:10:32Z" changeset="10562011" uid="581499" user="Gelsemium">
    <tag k="amenity" v="hospital"/>
    <tag k="emergency" v="yes"/>
    <tag k="name" v="Centro de Salud de Arroyo de la Miel"/>
  </node>
  <node id="1632931236" lat="37.4685126" lon="-4.4246365" version="1" timestamp="2012-02-14T17:13:11Z" changeset="10684940" uid="604952" user="Armando-Martin">
    <tag k="amenity" v="hospital"/>
    <tag k="emergency" v="yes"/>
    <tag k="name" v="Hospital Infanta Margarita"/>
  </node>
  <node id="1632935868" lat="37.4719161" lon="-4.4401024" version="3" timestamp="2012-02-18T01:34:40Z" changeset="10716116" uid="604952" user="Armando-Martin">
    <tag k="amenity" v="school"/>
    <tag k="designation" v="Instituto de Educación Secundaria Aguilar y Eslava"/>
    <tag k="name" v="IES Aguilar y Eslava"/>
  </node>
  <node id="1632941890" lat="37.4724806" lon="-4.4390614" version="1" timestamp="2012-02-14T17:18:47Z" changeset="10684940" uid="604952" user="Armando-Martin">
    <tag k="amenity" v="school"/>
    <tag k="designation" v="Colegio Público de Educación Infantil y Primaria Nuestra Señora de la Sierra"/>
    <tag k="name" v="Colegio Nª Sª de la Sierra"/>
  </node>
  <node id="1632962247" lat="37.4724380" lon="-4.4382407" version="1" timestamp="2012-02-14T17:34:13Z" changeset="10684940" uid="604952" user="Armando-Martin">
    <tag k="amenity" v="hospital"/>
    <tag k="designation" v="Centro de Salud Matrona Antonia Mesa Fernández"/>
    <tag k="name" v="Centro de Salud"/>
  </node>
  <node id="1633030052" lat="37.4704966" lon="-4.4335736" version="1" timestamp="2012-02-14T18:23:08Z" changeset="10684940" uid="604952" user="Armando-Martin">
    <tag k="amenity" v="school"/>
    <tag k="name" v="IES Felipe Solís"/>
  </node>
  <node id="1634474434" lat="37.4688688" lon="-4.4416147" version="1" timestamp="2012-02-15T20:15:00Z" changeset="10695835" uid="604952" user="Armando-Martin">
    <tag k="amenity" v="school"/>
    <tag k="name" v="Colegio Ed. Especial Termens"/>
  </node>
  <node id="1635963764" lat="37.4686367" lon="-4.4435083" version="1" timestamp="2012-02-17T00:27:12Z" changeset="10707142" uid="604952" user="Armando-Martin">
    <tag k="amenity" v="school"/>
    <tag k="name" v="Colegio Ángel Cruz Rueda"/>
  </node>
  <node id="1657412951" lat="37.5811823" lon="-4.7493550" version="2" timestamp="2014-03-07T13:39:55Z" changeset="20969482" uid="399150" user="patl">
    <tag k="amenity" v="hospital"/>
    <tag k="emergency" v="no"/>
    <tag k="name" v="Consultorio Médico Natividad Cabrera"/>
  </node>
  <node id="1660319226" lat="36.7346863" lon="-3.6889064" version="1" timestamp="2012-03-05T09:52:10Z" changeset="10877430" uid="617395" user="Mike_TropiRed">
    <tag k="amenity" v="school"/>
  </node>
  <node id="1660335304" lat="36.7384007" lon="-3.6904728" version="1" timestamp="2012-03-05T10:07:10Z" changeset="10877430" uid="617395" user="Mike_TropiRed">
    <tag k="amenity" v="school"/>
  </node>
  <node id="1661424661" lat="36.7333195" lon="-3.6859288" version="1" timestamp="2012-03-05T22:14:16Z" changeset="10884710" uid="617395" user="Mike_TropiRed">
    <tag k="amenity" v="school"/>
  </node>
  <node id="1666526232" lat="36.7025845" lon="-6.1294649" version="1" timestamp="2012-03-08T21:54:32Z" changeset="10914283" uid="620785" user="ebalao">
    <tag k="addr:postcode" v="11407"/>
    <tag k="amenity" v="school"/>
    <tag k="name" v="C.P. Antonio Machado"/>
  </node>
  <node id="1666526235" lat="36.7016853" lon="-6.1287710" version="2" timestamp="2015-01-23T22:24:20Z" changeset="28361113" uid="2221122" user="Ale Renedo">
    <tag k="amenity" v="school"/>
    <tag k="name" v="C.P. Antonio Machado"/>
  </node>
  <node id="1668416205" lat="36.7341935" lon="-3.6869157" version="1" timestamp="2012-03-10T09:37:02Z" changeset="10929304" uid="617395" user="Mike_TropiRed">
    <tag k="amenity" v="school"/>
  </node>
  <node id="1673541158" lat="37.3864437" lon="-5.9951411" version="2" timestamp="2012-03-17T18:51:27Z" changeset="11011238" uid="627304" user="Spanish Courses IELE">
    <tag k="addr:housenumber" v="29"/>
    <tag k="addr:postcode" v="41001"/>
    <tag k="addr:street" v="García de Vinuesa"/>
    <tag k="amenity" v="school"/>
    <tag k="designation" v="Spanish Courses"/>
    <tag k="name" v="IELE Spanish Courses"/>
  </node>
  <node id="1676609051" lat="36.4326504" lon="-5.1420200" version="2" timestamp="2015-05-21T14:20:26Z" changeset="31333299" uid="290680" user="wheelmap_visitor">
    <tag k="amenity" v="hospital"/>
    <tag k="name" v="Centro de Salud La Lobilla"/>
    <tag k="wheelchair" v="yes"/>
  </node>
  <node id="1676609054" lat="36.4280837" lon="-5.1384924" version="1" timestamp="2012-03-16T08:14:36Z" changeset="10995981" uid="41190" user="UFeldmaus">
    <tag k="amenity" v="hospital"/>
    <tag k="name" v="Clinica Premium"/>
  </node>
  <node id="1681164190" lat="36.4268167" lon="-5.1462835" version="1" timestamp="2012-03-19T06:20:19Z" changeset="11026641" uid="41190" user="UFeldmaus">
    <tag k="amenity" v="school"/>
    <tag k="name" v="Escuela Municipal de Adultos"/>
  </node>
  <node id="1681347484" lat="36.4339452" lon="-5.1424651" version="1" timestamp="2012-03-19T09:24:53Z" changeset="11027720" uid="41190" user="UFeldmaus">
    <tag k="amenity" v="school"/>
  </node>
  <node id="1681347491" lat="36.4318308" lon="-5.1389724" version="1" timestamp="2012-03-19T09:24:53Z" changeset="11027720" uid="41190" user="UFeldmaus">
    <tag k="amenity" v="school"/>
    <tag k="name" v="Sierra Bermeja"/>
  </node>
  <node id="1694567120" lat="37.4029043" lon="-5.9807753" version="1" timestamp="2012-03-28T10:49:47Z" changeset="11125350" uid="546977" user="juanluep">
    <tag k="amenity" v="hospital"/>
    <tag k="name" v="Unidad de rehabilitación de salud mental"/>
  </node>
  <node id="1704546228" lat="36.6699103" lon="-4.4604524" version="3" timestamp="2014-11-15T08:03:04Z" changeset="26793262" uid="371988" user="docmart">
    <tag k="amenity" v="school"/>
    <tag k="name" v="C.E.I.P. Julio Caro Baroja"/>
  </node>
  <node id="1704845364" lat="37.2552495" lon="-5.5489054" version="1" timestamp="2012-04-06T17:45:05Z" changeset="11204497" uid="647563" user="ALupin">
    <tag k="amenity" v="school"/>
    <tag k="name" v="Colegio Maestro Rodríguez Aniceto"/>
  </node>
  <node id="1705682895" lat="37.3369686" lon="-5.8317253" version="2" timestamp="2014-11-13T12:28:56Z" changeset="26755060" uid="169885" user="k1wi">
    <tag k="addr:housenumber" v="s/n"/>
    <tag k="addr:postcode" v="41500"/>
    <tag k="addr:street" v="Calle de Maestro José Casado"/>
    <tag k="amenity" v="school"/>
    <tag k="name" v="CEIP Federico Gracía Lorca"/>
  </node>
  <node id="1707378769" lat="36.4252291" lon="-5.1528207" version="1" timestamp="2012-04-08T16:47:54Z" changeset="11227171" uid="651784" user="Belcebu">
    <tag k="amenity" v="school"/>
    <tag k="name" v="Centro de Educación Infaltil y primaría Ramon García"/>
  </node>
  <node id="1707437785" lat="36.4343771" lon="-5.1514500" version="1" timestamp="2012-04-08T17:27:41Z" changeset="11227171" uid="651784" user="Belcebu">
    <tag k="amenity" v="school"/>
    <tag k="name" v="Instituto de Enseñanza Secundaría Mar de Alborán"/>
  </node>
  <node id="1712579128" lat="37.1351210" lon="-6.8189852" version="1" timestamp="2012-04-12T11:28:42Z" changeset="11275150" uid="657510" user="Antonio BG">
    <tag k="amenity" v="school"/>
    <tag k="name" v="IES Odón Betanzos"/>
  </node>
  <node id="1714620365" lat="36.4224975" lon="-5.1512214" version="1" timestamp="2012-04-13T15:43:27Z" changeset="11288920" uid="41190" user="UFeldmaus">
    <tag k="amenity" v="school"/>
    <tag k="name" v="Instituto Méditerraneo"/>
  </node>
  <node id="1718092123" lat="36.7126226" lon="-4.2660616" version="1" timestamp="2012-04-15T16:58:02Z" changeset="11312117" uid="658400" user="jumanm">
    <tag k="amenity" v="hospital"/>
    <tag k="designation" v="Hospital"/>
    <tag k="emergency" v="yes"/>
    <tag k="name" v="Clinica Rincon"/>
    <tag k="source" v="Local knowledge"/>
  </node>
  <node id="1724224931" lat="36.4315579" lon="-5.1430315" version="2" timestamp="2014-11-30T04:21:47Z" changeset="27124786" uid="220932" user="mor">
    <tag k="amenity" v="school"/>
    <tag k="name" v="Colegio Público Antonio Machado"/>
  </node>
  <node id="1724374026" lat="36.7153974" lon="-4.2860657" version="1" timestamp="2012-04-20T17:05:21Z" changeset="11365395" uid="658400" user="jumanm">
    <tag k="amenity" v="hospital"/>
    <tag k="designation" v="Centro de Salud"/>
    <tag k="emergency" v="yes"/>
    <tag k="name" v="Centro de Salud"/>
    <tag k="source" v="Local knowledge"/>
  </node>
  <node id="1731329658" lat="37.2892050" lon="-5.9490218" version="2" timestamp="2012-04-26T02:24:50Z" changeset="11420379" uid="668329" user="Alvaro Blanco Morillo">
    <tag k="amenity" v="school"/>
    <tag k="name" v="Colegio Internacional Alminar"/>
  </node>
  <node id="1736169232" lat="37.3388557" lon="-6.0622793" version="1" timestamp="2012-04-30T11:07:42Z" changeset="11458322" uid="338538" user="Jesus Rodriguez">
    <tag k="amenity" v="school"/>
    <tag k="name" v="Hipatia"/>
  </node>
  <node id="1738115786" lat="37.7781890" lon="-3.7995054" version="3" timestamp="2013-01-27T23:11:37Z" changeset="14813210" uid="1099526" user="papalima">
    <tag k="amenity" v="school"/>
    <tag k="name" v="CP &quot;Peñamefécit&quot;"/>
  </node>
  <node id="1753722404" lat="37.3904145" lon="-6.0375451" version="1" timestamp="2012-05-15T09:11:51Z" changeset="11602953" uid="682198" user="cpomares">
    <tag k="amenity" v="school"/>
    <tag k="name" v="Colegio El Carambolo"/>
  </node>
  <node id="1788266312" lat="36.7151403" lon="-4.4253727" version="2" timestamp="2014-01-15T16:46:52Z" changeset="20017669" uid="1256497" user="andi9876">
    <tag k="addr:housenumber" v="6 1º-2"/>
    <tag k="amenity" v="school"/>
    <tag k="designation" v="Gabinete Logopedico"/>
    <tag k="name" v="Cenfar"/>
  </node>
  <node id="1826484907" lat="36.2803427" lon="-6.0916133" version="2" timestamp="2012-07-15T15:11:20Z" changeset="12230693" uid="164214" user="Notch">
    <tag k="amenity" v="school"/>
    <tag k="name" v="I.E.S. La Atalaya"/>
  </node>
  <node id="1841577255" lat="36.1344626" lon="-5.3533146" version="3" timestamp="2015-04-07T00:25:40Z" changeset="30029342" uid="2163609" user="CarlosMG">
    <tag k="addr:city" v="Gibraltar"/>
    <tag k="amenity" v="school"/>
    <tag k="name" v="College of Further Education"/>
    <tag k="wikipedia" v="en:Gibraltar College"/>
  </node>
  <node id="1854822469" lat="37.0064793" lon="-6.5513151" version="1" timestamp="2012-08-06T20:17:12Z" changeset="12638370" uid="291857" user="nonopp">
    <tag k="amenity" v="hospital"/>
    <tag k="emergency" v="yes"/>
  </node>
  <node id="1877575800" lat="36.7684558" lon="-6.3479939" version="1" timestamp="2012-08-22T12:41:01Z" changeset="12820194" uid="824122" user="Joe October">
    <tag k="amenity" v="school"/>
    <tag k="name" v="C.E.I.P. Virgen de la Caridad &quot;El Palmar&quot;"/>
  </node>
  <node id="1879107336" lat="37.0126039" lon="-6.5618795" version="2" timestamp="2012-08-29T09:49:19Z" changeset="12902900" uid="291857" user="nonopp">
    <tag k="addr:hamlet" v="Matalascañas"/>
    <tag k="addr:housenumber" v="2"/>
    <tag k="addr:suburb" v="Sector I"/>
    <tag k="amenity" v="school"/>
    <tag k="name" v="Escuela Infantil Zampullin III"/>
  </node>
  <node id="1880468529" lat="36.2040881" lon="-5.3830191" version="1" timestamp="2012-08-24T08:30:02Z" changeset="12841994" uid="527902" user="Ambil">
    <tag k="amenity" v="school"/>
    <tag k="name" v="Escuela de Hostelería"/>
  </node>
  <node id="1880468704" lat="36.2131267" lon="-5.3829450" version="1" timestamp="2012-08-24T08:31:03Z" changeset="12841994" uid="527902" user="Ambil">
    <tag k="amenity" v="school"/>
    <tag k="name" v="IES Carlos Castilla del Pino"/>
  </node>
  <node id="1880474160" lat="36.2140356" lon="-5.3849621" version="1" timestamp="2012-08-24T08:39:29Z" changeset="12841994" uid="527902" user="Ambil">
    <tag k="amenity" v="school"/>
    <tag k="name" v="Apolinar"/>
  </node>
  <node id="1887954631" lat="37.3930987" lon="-5.9930020" version="2" timestamp="2012-08-29T10:01:33Z" changeset="12903049" uid="291857" user="nonopp">
    <tag k="amenity" v="school"/>
    <tag k="name" v="Centro Itálica"/>
    <tag k="website" v="http://www.colegioitalica.es"/>
  </node>
  <node id="1888025744" lat="36.6039745" lon="-6.2235113" version="1" timestamp="2012-08-29T10:54:55Z" changeset="12903651" uid="842081" user="lupegeaga">
    <tag k="amenity" v="school"/>
    <tag k="name" v="La Salle Santa Natalia"/>
  </node>
  <node id="1892224172" lat="35.7777611" lon="-5.8098756" version="1" timestamp="2012-08-31T20:25:37Z" changeset="12935748" uid="848948" user="Ouad Bob">
    <tag k="amenity" v="hospital"/>
    <tag k="name" v="Croissant Rouge"/>
  </node>
  <node id="1904313394" lat="37.3749378" lon="-6.0419847" version="1" timestamp="2012-09-07T14:44:35Z" changeset="13023617" uid="2500" user="jamesks">
    <tag k="amenity" v="school"/>
    <tag k="name" v="Escuela de Musica y Danza Albinez"/>
  </node>
  <node id="1906721785" lat="37.3384949" lon="-5.8415160" version="2" timestamp="2015-02-01T18:37:12Z" changeset="28551513" uid="2257072" user="Antonio Guillen">
    <tag k="amenity" v="school"/>
    <tag k="name" v="Colegio Salesiano, Nuestra Señora del Águila"/>
  </node>
  <node id="1920888628" lat="37.1154868" lon="-5.4549554" version="1" timestamp="2012-09-18T21:55:42Z" changeset="13162062" uid="559491" user="MIGUEL ANGEL">
    <tag k="amenity" v="school"/>
    <tag k="name" v="LUIS HERNANDEZ"/>
  </node>
  <node id="1920888630" lat="37.1162567" lon="-5.4560820" version="1" timestamp="2012-09-18T21:55:42Z" changeset="13162062" uid="559491" user="MIGUEL ANGEL">
    <tag k="amenity" v="school"/>
    <tag k="name" v="FUENTE NUEVA"/>
  </node>
  <node id="1923336710" lat="37.1210722" lon="-5.4640957" version="1" timestamp="2012-09-20T07:38:07Z" changeset="13179966" uid="559491" user="MIGUEL ANGEL">
    <tag k="addr:housename" v="IB Fray Bartolome de las Casas"/>
    <tag k="addr:postcode" v="41530"/>
    <tag k="addr:street" v="Paseo de la Alameda"/>
    <tag k="amenity" v="school"/>
    <tag k="name" v="Instituto de Bachillerato Fray Bartolome de las Casas"/>
  </node>
  <node id="1924304853" lat="37.3618571" lon="-5.9810517" version="2" timestamp="2013-11-10T13:46:20Z" changeset="18815951" uid="524500" user="wheelmap_android">
    <tag k="amenity" v="hospital"/>
    <tag k="emergency" v="yes"/>
    <tag k="name" v="Ciudad Sanitaria Virgen del Rochio"/>
    <tag k="wheelchair" v="yes"/>
  </node>
  <node id="1935611562" lat="37.1191446" lon="-5.4628498" version="1" timestamp="2012-09-27T17:51:17Z" changeset="13275231" uid="559491" user="MIGUEL ANGEL">
    <tag k="amenity" v="school"/>
    <tag k="name" v="Colegio Publico Reina Sofia"/>
  </node>
  <node id="1954789505" lat="37.8682922" lon="-4.7800317" version="2" timestamp="2012-10-09T19:34:50Z" changeset="13432021" uid="961802" user="felipetd">
    <tag k="amenity" v="hospital"/>
    <tag k="designation" v="Centro de Salud"/>
    <tag k="emergency" v="yes"/>
    <tag k="name" v="Centro de Salud Sta. Victoria"/>
    <tag k="source" v="SAS"/>
  </node>
  <node id="1977230375" lat="37.3350398" lon="-7.4912362" version="1" timestamp="2012-10-21T22:47:23Z" changeset="13586886" uid="347293" user="Alexmol">
    <tag k="amenity" v="school"/>
    <tag k="name" v="Escola Primária de Odeleite"/>
  </node>
  <node id="1987946352" lat="36.7340930" lon="-4.9185550" version="1" timestamp="2012-10-29T05:42:40Z" changeset="13670028" uid="41190" user="UFeldmaus">
    <tag k="amenity" v="hospital"/>
    <tag k="name" v="Centro Medico"/>
  </node>
  <node id="1999896942" lat="36.6832165" lon="-6.1397745" version="2" timestamp="2015-02-19T17:24:51Z" changeset="28960896" uid="2221122" user="Ale Renedo">
    <tag k="amenity" v="hospital"/>
    <tag k="name" v="Centro Salud San Dionisio"/>
  </node>
  <node id="2006295822" lat="37.3637791" lon="-6.0422368" version="1" timestamp="2012-11-10T13:18:09Z" changeset="13820552" uid="2500" user="jamesks">
    <tag k="amenity" v="school"/>
  </node>
  <node id="2036606007" lat="37.3684029" lon="-5.7489150" version="1" timestamp="2012-11-27T16:23:56Z" changeset="14060817" uid="526577" user="iceman2000">
    <tag k="amenity" v="school"/>
    <tag k="name" v="IES María Inmaculada"/>
  </node>
  <node id="2036689526" lat="37.3993967" lon="-4.7512012" version="2" timestamp="2012-11-29T10:35:43Z" changeset="14084659" uid="566382" user="pirulotropical">
    <tag k="amenity" v="hospital"/>
    <tag k="designation" v="CHARE"/>
    <tag k="emergency" v="yes"/>
    <tag k="name" v="CHARE"/>
  </node>
  <node id="2041531130" lat="37.4311183" lon="-5.9806390" version="1" timestamp="2012-11-30T06:47:02Z" changeset="14095193" uid="335661" user="Rickydh">
    <tag k="amenity" v="hospital"/>
    <tag k="name" v="Centro de salud de San Jerónimo"/>
  </node>
  <node id="2043063471" lat="35.0616485" lon="-5.2000270" version="1" timestamp="2012-11-30T22:47:01Z" changeset="14105453" uid="1100126" user="dar khizana">
    <tag k="amenity" v="hospital"/>
  </node>
  <node id="2043170044" lat="37.9146288" lon="-4.7216171" version="1" timestamp="2012-12-01T00:56:19Z" changeset="14106360" uid="523481" user="decano">
    <tag k="amenity" v="hospital"/>
    <tag k="emergency" v="no"/>
    <tag k="name" v="Área de Vigilancia de la Salud"/>
  </node>
  <node id="2051085268" lat="36.6262556" lon="-6.3634109" version="1" timestamp="2012-12-05T10:13:05Z" changeset="14161211" uid="195930" user="perdigano">
    <tag k="amenity" v="school"/>
  </node>
  <node id="2059372017" lat="37.3240483" lon="-6.6829623" version="1" timestamp="2012-12-10T03:53:58Z" changeset="14221343" uid="695707" user="MolinMolout">
    <tag k="amenity" v="school"/>
    <tag k="name" v="Lora Tamayo"/>
  </node>
  <node id="2066388872" lat="36.4860554" lon="-4.9956071" version="2" timestamp="2013-10-18T12:17:50Z" changeset="18418522" uid="475402" user="vramos">
    <tag k="amenity" v="hospital"/>
    <tag k="designation" v="Ambulatorio"/>
    <tag k="emergency" v="yes"/>
    <tag k="name" v="Centro de Salud San Pedro Alcantara"/>
  </node>
  <node id="2096136395" lat="36.7473822" lon="-3.9546257" version="1" timestamp="2013-01-05T12:17:08Z" changeset="14536224" uid="55462" user="Lübeck">
    <tag k="amenity" v="school"/>
  </node>
  <node id="2110843833" lat="36.7471576" lon="-3.8806526" version="2" timestamp="2013-01-16T14:22:27Z" changeset="14673054" uid="55462" user="Lübeck">
    <tag k="amenity" v="hospital"/>
    <tag k="name" v="Clínica Rincón"/>
    <tag k="opening_hours" v="24/7"/>
    <tag k="phone" v="+34 952521045"/>
    <tag k="website" v="http://www.clinicarincon.com/"/>
  </node>
  <node id="2112336012" lat="36.7594811" lon="-3.8432085" version="1" timestamp="2013-01-15T14:03:41Z" changeset="14661173" uid="55462" user="Lübeck">
    <tag k="amenity" v="school"/>
  </node>
  <node id="2115196314" lat="37.7411962" lon="-3.6925132" version="2" timestamp="2013-01-17T06:07:30Z" changeset="14679978" uid="1202431" user="Covi">
    <tag k="addr:housename" v="Colegio Público Real Mentesa (1)"/>
    <tag k="addr:postcode" v="23170"/>
    <tag k="addr:street" v="Estadio"/>
    <tag k="amenity" v="school"/>
    <tag k="name" v="Colegio Público Real Mentesa"/>
  </node>
  <node id="2115196328" lat="37.7425027" lon="-3.6931088" version="1" timestamp="2013-01-17T05:03:07Z" changeset="14679978" uid="1202431" user="Covi">
    <tag k="amenity" v="hospital"/>
    <tag k="emergency" v="no"/>
    <tag k="name" v="Centro médico"/>
  </node>
  <node id="2115214023" lat="37.7394781" lon="-3.7208456" version="1" timestamp="2013-01-17T06:39:41Z" changeset="14679978" uid="1202431" user="Covi">
    <tag k="amenity" v="hospital"/>
    <tag k="emergency" v="no"/>
    <tag k="name" v="061 (romería)"/>
  </node>
  <node id="2119026392" lat="37.7558281" lon="-3.7956470" version="1" timestamp="2013-01-19T11:12:23Z" changeset="14705958" uid="1099526" user="papalima">
    <tag k="amenity" v="hospital"/>
    <tag k="designation" v="Residencia de mayores"/>
    <tag k="emergency" v="no"/>
    <tag k="name" v="Residencia de mayores Fuente de la Peña"/>
    <tag k="source" v="Fuente de la Peña"/>
  </node>
  <node id="2139423893" lat="36.6013776" lon="-4.5325174" version="2" timestamp="2015-04-01T22:28:48Z" changeset="29917095" uid="24440" user="jaakkoh">
    <tag k="addr:housenumber" v="9"/>
    <tag k="addr:postcode" v="29631"/>
    <tag k="addr:street" v="Avenida Salvador Vicente"/>
    <tag k="amenity" v="school"/>
    <tag k="name" v="Colegio Maravillas"/>
  </node>
  <node id="2145459183" lat="36.6174506" lon="-6.2795980" version="1" timestamp="2013-02-07T15:40:19Z" changeset="14946332" uid="416641" user="jsoler">
    <tag k="amenity" v="school"/>
    <tag k="name" v="C.E.I.P. Marqués de Santa Cruz"/>
  </node>
  <node id="2145459184" lat="36.6179376" lon="-6.2796599" version="1" timestamp="2013-02-07T15:40:19Z" changeset="14946332" uid="416641" user="jsoler">
    <tag k="amenity" v="school"/>
    <tag k="name" v="I.E.S. Fco. Javier de Uriarte"/>
  </node>
  <node id="2145459185" lat="36.5945873" lon="-6.2475420" version="1" timestamp="2013-02-07T15:40:19Z" changeset="14946332" uid="416641" user="jsoler">
    <tag k="amenity" v="school"/>
    <tag k="name" v="I.E.S. La Arboleda"/>
  </node>
  <node id="2145459190" lat="36.5964631" lon="-6.2472521" version="1" timestamp="2013-02-07T15:40:19Z" changeset="14946332" uid="416641" user="jsoler">
    <tag k="amenity" v="school"/>
    <tag k="name" v="I.E.S. Pintor Juan Lara"/>
  </node>
  <node id="2147891263" lat="37.9188973" lon="-5.5855201" version="1" timestamp="2013-02-09T16:13:38Z" changeset="14969266" uid="735621" user="superbazi">
    <tag k="amenity" v="school"/>
    <tag k="name" v="Cerro Negrillo"/>
  </node>
  <node id="2148131023" lat="35.5715979" lon="-5.3875335" version="1" timestamp="2013-02-09T19:28:14Z" changeset="14971621" uid="578772" user="alain2003">
    <tag k="amenity" v="hospital"/>
    <tag k="name" v="Clinique croissant Rouge"/>
  </node>
  <node id="2149418811" lat="37.8962123" lon="-4.7647237" version="1" timestamp="2013-02-10T19:07:02Z" changeset="14984121" uid="1224997" user="Jesús Abad">
    <tag k="amenity" v="school"/>
    <tag k="name" v="C.E.I.P. Averroes"/>
  </node>
  <node id="2153525630" lat="36.4886436" lon="-4.9956514" version="1" timestamp="2013-02-13T19:00:19Z" changeset="15021510" uid="475402" user="vramos">
    <tag k="amenity" v="school"/>
  </node>
  <node id="2153552014" lat="37.1338191" lon="-3.6671404" version="1" timestamp="2013-02-13T19:30:11Z" changeset="15021826" uid="878213" user="0000000000000">
    <tag k="amenity" v="hospital"/>
    <tag k="name" v="Centro de Salud de Las Gabias"/>
  </node>
  <node id="2153553347" lat="37.1244548" lon="-3.6532841" version="1" timestamp="2013-02-13T19:32:30Z" changeset="15021826" uid="878213" user="0000000000000">
    <tag k="amenity" v="hospital"/>
    <tag k="name" v="Consultorio de Gabia Chica"/>
  </node>
  <node id="2153554503" lat="37.1495983" lon="-3.6739988" version="1" timestamp="2013-02-13T19:34:07Z" changeset="15021826" uid="878213" user="0000000000000">
    <tag k="amenity" v="hospital"/>
    <tag k="name" v="Consultorio de Híjar"/>
  </node>
  <node id="2154621711" lat="36.5979461" lon="-6.2256842" version="1" timestamp="2013-02-14T15:44:40Z" changeset="15030565" uid="416641" user="jsoler">
    <tag k="addr:housenumber" v="16"/>
    <tag k="addr:street" v="Calle Misericordia"/>
    <tag k="amenity" v="school"/>
    <tag k="denomination" v="catholic"/>
    <tag k="name" v="Nuestra Señora de Lourdes"/>
  </node>
  <node id="2192482119" lat="37.8944175" lon="-4.7809690" version="1" timestamp="2013-03-09T13:08:31Z" changeset="15301978" uid="1230364" user="José Javier">
    <tag k="amenity" v="school"/>
    <tag k="name" v="Colegio Cronista Rey Díaz"/>
  </node>
  <node id="2193193602" lat="35.5701336" lon="-5.3841297" version="1" timestamp="2013-03-09T20:56:00Z" changeset="15307538" uid="1256774" user="Yascine">
    <tag k="amenity" v="school"/>
    <tag k="name" v="Lycée Jaber Ibn Hayyan"/>
  </node>
  <node id="2193193606" lat="35.5707096" lon="-5.3856747" version="1" timestamp="2013-03-09T20:56:00Z" changeset="15307538" uid="1256774" user="Yascine">
    <tag k="amenity" v="hospital"/>
    <tag k="name" v="Clinique Tétouan"/>
  </node>
  <node id="2193205110" lat="35.5728302" lon="-5.3804175" version="1" timestamp="2013-03-09T21:04:14Z" changeset="15307538" uid="1256774" user="Yascine">
    <tag k="amenity" v="school"/>
  </node>
  <node id="2193205112" lat="35.5675548" lon="-5.3867958" version="1" timestamp="2013-03-09T21:04:14Z" changeset="15307538" uid="1256774" user="Yascine">
    <tag k="amenity" v="school"/>
  </node>
  <node id="2193205113" lat="35.5705482" lon="-5.3836898" version="2" timestamp="2013-03-11T19:15:09Z" changeset="15331803" uid="1256774" user="Yascine">
    <tag k="amenity" v="school"/>
    <tag k="name" v="Collège Anwal"/>
  </node>
  <node id="2193205114" lat="35.5713643" lon="-5.3814151" version="2" timestamp="2013-03-11T19:15:09Z" changeset="15331803" uid="1256774" user="Yascine">
    <tag k="amenity" v="school"/>
    <tag k="name" v="Collège Khadija Oum Al Mouminin"/>
  </node>
  <node id="2193206362" lat="35.5709191" lon="-5.3785346" version="1" timestamp="2013-03-09T21:05:47Z" changeset="15307538" uid="1256774" user="Yascine">
    <tag k="amenity" v="school"/>
  </node>
  <node id="2193213073" lat="35.5699635" lon="-5.3815280" version="1" timestamp="2013-03-09T21:10:36Z" changeset="15307538" uid="1256774" user="Yascine">
    <tag k="amenity" v="school"/>
  </node>
  <node id="2193213076" lat="35.5723502" lon="-5.3877507" version="1" timestamp="2013-03-09T21:10:36Z" changeset="15307538" uid="1256774" user="Yascine">
    <tag k="amenity" v="hospital"/>
    <tag k="name" v="Hôpital Espagnol"/>
  </node>
  <node id="2193213685" lat="35.5711023" lon="-5.3835396" version="2" timestamp="2013-03-11T19:15:09Z" changeset="15331803" uid="1256774" user="Yascine">
    <tag k="amenity" v="school"/>
    <tag k="name" v="Beaux Arts"/>
  </node>
  <node id="2193213908" lat="35.5708405" lon="-5.3848164" version="1" timestamp="2013-03-09T21:11:40Z" changeset="15307538" uid="1256774" user="Yascine">
    <tag k="amenity" v="school"/>
  </node>
  <node id="2193233932" lat="35.5670137" lon="-5.3744255" version="1" timestamp="2013-03-09T21:19:17Z" changeset="15307538" uid="1256774" user="Yascine">
    <tag k="amenity" v="school"/>
    <tag k="name" v="Lycée Hassan II"/>
  </node>
  <node id="2193233934" lat="35.5661366" lon="-5.3734062" version="1" timestamp="2013-03-09T21:19:18Z" changeset="15307538" uid="1256774" user="Yascine">
    <tag k="amenity" v="school"/>
  </node>
  <node id="2196056067" lat="37.4717810" lon="-4.4278493" version="1" timestamp="2013-03-11T17:16:27Z" changeset="15330372" uid="1261105" user="fradiex">
    <tag k="amenity" v="hospital"/>
    <tag k="emergency" v="no"/>
    <tag k="name" v="Hospital de Día de Salud Mental"/>
  </node>
  <node id="2203821244" lat="35.5736989" lon="-5.3811415" version="1" timestamp="2013-03-15T21:38:17Z" changeset="15378249" uid="1256774" user="Yascine">
    <tag k="amenity" v="school"/>
  </node>
  <node id="2203821245" lat="35.5746282" lon="-5.3803690" version="1" timestamp="2013-03-15T21:38:17Z" changeset="15378249" uid="1256774" user="Yascine">
    <tag k="amenity" v="school"/>
  </node>
  <node id="2203821247" lat="35.5747242" lon="-5.3808143" version="1" timestamp="2013-03-15T21:38:17Z" changeset="15378249" uid="1256774" user="Yascine">
    <tag k="amenity" v="school"/>
  </node>
  <node id="2204815856" lat="35.5725454" lon="-5.3753873" version="1" timestamp="2013-03-16T15:46:36Z" changeset="15385426" uid="1256774" user="Yascine">
    <tag k="amenity" v="school"/>
    <tag k="name" v="Ecole Ibn Roshd"/>
  </node>
  <node id="2205596329" lat="35.5733254" lon="-5.3557293" version="2" timestamp="2013-03-16T20:46:04Z" changeset="15388863" uid="1256774" user="Yascine">
    <tag k="amenity" v="hospital"/>
    <tag k="emergency" v="yes"/>
    <tag k="name" v="Hôpital Civil"/>
  </node>
  <node id="2217030129" lat="36.4250388" lon="-5.1522827" version="1" timestamp="2013-03-23T18:07:42Z" changeset="15469562" uid="41190" user="UFeldmaus">
    <tag k="amenity" v="hospital"/>
    <tag k="name" v="Centro de Salud Estepona"/>
  </node>
  <node id="2218341838" lat="35.5691739" lon="-5.3822139" version="1" timestamp="2013-03-24T10:59:53Z" changeset="15476913" uid="1256774" user="Yascine">
    <tag k="amenity" v="hospital"/>
    <tag k="name" v="Clinique an-Nakhil"/>
  </node>
  <node id="2259914380" lat="36.5841724" lon="-6.2223366" version="1" timestamp="2013-04-09T09:57:53Z" changeset="15664008" uid="1342187" user="Pablo Alcina">
    <tag k="amenity" v="school"/>
    <tag k="name" v="Colegio Grazalema"/>
  </node>
  <node id="2259952470" lat="36.5739112" lon="-6.2187854" version="1" timestamp="2013-04-09T10:30:45Z" changeset="15664008" uid="1342187" user="Pablo Alcina">
    <tag k="amenity" v="school"/>
    <tag k="name" v="Colegio Guadalete"/>
  </node>
  <node id="2262801979" lat="36.6845248" lon="-4.4576739" version="1" timestamp="2013-04-11T14:44:01Z" changeset="15690505" uid="1313404" user="juanon">
    <tag k="amenity" v="hospital"/>
    <tag k="designation" v="Privado"/>
    <tag k="emergency" v="yes"/>
    <tag k="name" v="Hospital Quiron"/>
  </node>
  <node id="2275687969" lat="36.5941706" lon="-4.5748926" version="1" timestamp="2013-04-21T17:04:32Z" changeset="15813371" uid="1378117" user="Rafacoba">
    <tag k="amenity" v="hospital"/>
    <tag k="name" v="Consultorio Benalmádena"/>
  </node>
  <node id="2275701646" lat="36.5985853" lon="-4.5566560" version="1" timestamp="2013-04-21T17:14:42Z" changeset="15813371" uid="1378117" user="Rafacoba">
    <tag k="amenity" v="school"/>
    <tag k="name" v="IES Benalmádena"/>
  </node>
  <node id="2283192923" lat="37.7734691" lon="-3.7903474" version="1" timestamp="2013-04-27T15:06:46Z" changeset="15884780" uid="1396193" user="Agipse Anul">
    <tag k="addr:housename" v="Didac"/>
    <tag k="addr:housenumber" v="10"/>
    <tag k="addr:street" v="Calle Carmelo Torres"/>
    <tag k="amenity" v="school"/>
    <tag k="name" v="Didac, Escuela Infantil"/>
    <tag k="source" v="Mapping Party 2013"/>
  </node>
  <node id="2283198633" lat="37.7637559" lon="-3.7890490" version="1" timestamp="2013-04-27T15:17:50Z" changeset="15884921" uid="1396214" user="Elpdio007">
    <tag k="amenity" v="school"/>
    <tag k="name" v="centro infantil kanguros"/>
    <tag k="phone" v="953238288"/>
  </node>
  <node id="2283199127" lat="37.7740267" lon="-3.7903313" version="1" timestamp="2013-04-27T15:18:44Z" changeset="15884780" uid="1396193" user="Agipse Anul">
    <tag k="addr:street" v="Av. Ejército Español"/>
    <tag k="amenity" v="school"/>
    <tag k="designation" v="Escuela Mayor"/>
    <tag k="name" v="Josefa Segovia"/>
    <tag k="source" v="MPJ2013"/>
  </node>
  <node id="2283213451" lat="37.7770093" lon="-3.7915199" version="1" timestamp="2013-04-27T15:30:58Z" changeset="15884915" uid="1396226" user="Ana Gómez">
    <tag k="amenity" v="hospital"/>
    <tag k="designation" v="Dental Clinic"/>
    <tag k="name" v="Carmen Garcia- Royo Carmona"/>
    <tag k="source" v="MPJ2013"/>
  </node>
  <node id="2283226690" lat="37.7770326" lon="-3.7916272" version="3" timestamp="2015-03-29T19:26:15Z" changeset="29835468" uid="5359" user="user_5359">
    <tag k="amenity" v="hospital"/>
    <tag k="designation" v="Dental Clinic"/>
    <tag k="mobile" v="687355438"/>
    <tag k="name" v="Tecproden"/>
    <tag k="phone" v="953251458"/>
    <tag k="source" v="MPJ2013"/>
  </node>
  <node id="2283226893" lat="37.7631171" lon="-3.7888189" version="3" timestamp="2013-05-05T16:17:18Z" changeset="15986399" uid="181135" user="Manu1400">
    <tag k="amenity" v="hospital"/>
    <tag k="name" v="Juan Cobaleda Fisioterapeuta"/>
    <tag k="phone" v="+34953885886"/>
    <tag k="source" v="MPJ2013"/>
  </node>
  <node id="2283231707" lat="37.7770391" lon="-3.7918119" version="3" timestamp="2015-03-29T19:26:16Z" changeset="29835468" uid="5359" user="user_5359">
    <tag k="addr:housenumber" v="9"/>
    <tag k="addr:street" v="Avenida de Andalucía"/>
    <tag k="amenity" v="hospital"/>
    <tag k="designation" v="Dental Clinic"/>
    <tag k="name" v="nova"/>
    <tag k="phone" v="953889018"/>
    <tag k="source" v="MPJ2013"/>
  </node>
  <node id="2283233177" lat="37.7770326" lon="-3.7960978" version="4" timestamp="2013-05-03T19:24:35Z" changeset="15964660" uid="78656" user="Walter Schlögl">
    <tag k="addr:housenumber" v="34"/>
    <tag k="addr:postcode" v="23005"/>
    <tag k="addr:street" v="Sefarad"/>
    <tag k="amenity" v="hospital"/>
    <tag k="designation" v="Clinic"/>
    <tag k="name" v="Clinipart Dr. Perez-Artacho"/>
    <tag k="phone" v="953221611"/>
    <tag k="source" v="MPJ2013"/>
    <tag k="website" v="www.clinipart.net"/>
  </node>
  <node id="2283236386" lat="37.7770242" lon="-3.7959825" version="5" timestamp="2013-05-05T16:24:54Z" changeset="15986497" uid="181135" user="Manu1400">
    <tag k="addr:housenumber" v="34"/>
    <tag k="addr:postcode" v="23005"/>
    <tag k="addr:street" v="Sefarad"/>
    <tag k="amenity" v="hospital"/>
    <tag k="designation" v="cirugia"/>
    <tag k="name" v="Clinimet"/>
    <tag k="source" v="MPJ2013"/>
  </node>
  <node id="2283236914" lat="37.7730302" lon="-3.7896929" version="1" timestamp="2013-04-27T15:52:58Z" changeset="15884780" uid="1396193" user="Agipse Anul">
    <tag k="addr:street" v="Cruz Roja Española"/>
    <tag k="amenity" v="school"/>
    <tag k="designation" v="Colegio Oficial"/>
    <tag k="name" v="Colegio Oficial de Veterinarios"/>
    <tag k="source" v="MPJ2013"/>
  </node>
  <node id="2283246404" lat="37.7770136" lon="-3.7958724" version="2" timestamp="2013-05-05T16:24:54Z" changeset="15986497" uid="181135" user="Manu1400">
    <tag k="addr:housenumber" v="30"/>
    <tag k="addr:postcode" v="23005"/>
    <tag k="addr:street" v="Sefarad"/>
    <tag k="amenity" v="hospital"/>
    <tag k="designation" v="Clinica dental"/>
    <tag k="name" v="Lendinez Vega"/>
    <tag k="source" v="MPJ2013"/>
    <tag k="telephone" v="953224640"/>
    <tag k="website" v="www.institutodontologicoybucofacial.com"/>
  </node>
  <node id="2283249023" lat="37.7770921" lon="-3.7921927" version="2" timestamp="2013-10-12T18:00:54Z" changeset="18319492" uid="7464" user="Odiug">
    <tag k="amenity" v="hospital"/>
    <tag k="designation" v="Mutua"/>
    <tag k="name" v="Asepeyo"/>
    <tag k="phone" v="900151000"/>
    <tag k="source" v="MPJ2013"/>
  </node>
  <node id="2283263008" lat="37.7767444" lon="-3.7946923" version="2" timestamp="2013-05-03T19:25:28Z" changeset="15964682" uid="78656" user="Walter Schlögl">
    <tag k="addr:housenumber" v="5"/>
    <tag k="addr:street" v="Dr. Garcia Jimenez"/>
    <tag k="amenity" v="hospital"/>
    <tag k="designation" v="Podologo"/>
    <tag k="name" v="La podoclinica"/>
    <tag k="phone" v="653261726"/>
    <tag k="source" v="MPJ2013"/>
  </node>
  <node id="2283274038" lat="37.7769745" lon="-3.7965791" version="2" timestamp="2013-05-03T19:24:01Z" changeset="15964652" uid="78656" user="Walter Schlögl">
    <tag k="addr:housenumber" v="45"/>
    <tag k="addr:postcode" v="23005"/>
    <tag k="addr:street" v="Sefarad"/>
    <tag k="amenity" v="school"/>
    <tag k="name" v="Centro Artes Escenicas"/>
    <tag k="phone" v="953086610"/>
    <tag k="source" v="MPJ2013"/>
    <tag k="website" v="www.centrodeartesescenicasjaen.com"/>
  </node>
  <node id="2283277510" lat="37.7661329" lon="-3.7887110" version="1" timestamp="2013-04-27T16:31:11Z" changeset="15884921" uid="1396214" user="Elpdio007">
    <tag k="amenity" v="hospital"/>
    <tag k="name" v="centro médico"/>
    <tag k="source" v="mpj2013"/>
  </node>
  <node id="2283279168" lat="37.7691416" lon="-3.7892260" version="3" timestamp="2013-04-27T16:37:02Z" changeset="15884780" uid="1396193" user="Agipse Anul">
    <tag k="addr:postcode" v="23001"/>
    <tag k="addr:street" v="Madre Soledad Torres Acosta"/>
    <tag k="amenity" v="school"/>
    <tag k="name" v="Colegio Oficial de Agentes Comerciales"/>
    <tag k="source" v="MPJ2013"/>
  </node>
  <node id="2283301009" lat="37.7766638" lon="-3.7918518" version="1" timestamp="2013-04-27T16:44:34Z" changeset="15885132" uid="1396177" user="javi dianez">
    <tag k="addr:housenumber" v="4"/>
    <tag k="addr:street" v="Sefarad"/>
    <tag k="amenity" v="hospital"/>
    <tag k="designation" v="Fisioterapeuta"/>
    <tag k="name" v="Ingobe"/>
    <tag k="telephone" v="953882088"/>
  </node>
  <node id="2283318886" lat="37.7762143" lon="-3.7915754" version="1" timestamp="2013-04-27T16:53:17Z" changeset="15885132" uid="1396177" user="javi dianez">
    <tag k="addr:street" v="Alfredo Krauss"/>
    <tag k="amenity" v="hospital"/>
    <tag k="name" v="Clinica Aranda"/>
    <tag k="source" v="MPJ2013"/>
    <tag k="telephone" v="953085200"/>
    <tag k="website" v="www.clinicaaranda.es"/>
  </node>
  <node id="2283319085" lat="37.7760757" lon="-3.7915730" version="4" timestamp="2013-10-12T17:43:15Z" changeset="18319195" uid="7464" user="Odiug">
    <tag k="addr:housenumber" v="16"/>
    <tag k="addr:street" v="C/ San Antonio"/>
    <tag k="amenity" v="hospital"/>
    <tag k="designation" v="Fisio"/>
    <tag k="name" v="Centro Fisioterapia y Rehabilitacion"/>
    <tag k="phone" v="654363219"/>
    <tag k="source" v="MPJ2013"/>
  </node>
  <node id="2285775694" lat="37.9918165" lon="-5.6488152" version="1" timestamp="2013-04-29T15:23:11Z" changeset="15909707" uid="1401395" user="pguegar">
    <tag k="amenity" v="school"/>
    <tag k="designation" v="Colegios"/>
    <tag k="name" v="Colegio Público Rural San Diego"/>
  </node>
  <node id="2285776561" lat="37.9936411" lon="-5.6528084" version="2" timestamp="2013-05-11T15:58:26Z" changeset="16082156" uid="875518" user="erlenmeyer">
    <tag k="amenity" v="hospital"/>
    <tag k="name" v="Centro de Salud"/>
  </node>
  <node id="2285784036" lat="37.9932915" lon="-5.6525809" version="1" timestamp="2013-04-29T15:32:25Z" changeset="15909834" uid="1401395" user="pguegar">
    <tag k="amenity" v="hospital"/>
    <tag k="name" v="Farmacia"/>
  </node>
  <node id="2301462279" lat="37.2797682" lon="-6.9399423" version="1" timestamp="2013-05-12T17:33:54Z" changeset="16099367" uid="1438800" user="danyhuelva">
    <tag k="amenity" v="hospital"/>
    <tag k="emergency" v="yes"/>
    <tag k="name" v="Blanca Paloma"/>
  </node>
  <node id="2301462307" lat="37.2622444" lon="-6.9492442" version="1" timestamp="2013-05-12T17:33:54Z" changeset="16099367" uid="1438800" user="danyhuelva">
    <tag k="amenity" v="hospital"/>
    <tag k="emergency" v="yes"/>
    <tag k="name" v="Clinica los naranjos"/>
  </node>
  <node id="2301462325" lat="37.2671647" lon="-6.9539943" version="1" timestamp="2013-05-12T17:33:54Z" changeset="16099367" uid="1438800" user="danyhuelva">
    <tag k="amenity" v="hospital"/>
    <tag k="emergency" v="yes"/>
    <tag k="name" v="Clinica San Pedro"/>
  </node>
  <node id="2301462336" lat="37.2800798" lon="-6.9274646" version="2" timestamp="2014-01-24T22:30:37Z" changeset="20185628" uid="1893513" user="javihuelva">
    <tag k="addr:city" v="Huelva"/>
    <tag k="addr:housename" v="Juan Ramon Jimenez"/>
    <tag k="addr:postcode" v="21005"/>
    <tag k="addr:street" v="Ronda Norte s/n"/>
    <tag k="amenity" v="hospital"/>
    <tag k="emergency" v="yes"/>
    <tag k="name" v="Juan Ramon Jimenez"/>
  </node>
  <node id="2308103127" lat="35.1721132" lon="-3.8616728" version="2" timestamp="2013-05-17T12:30:46Z" changeset="16166492" uid="1458706" user="saady">
    <tag k="amenity" v="school"/>
    <tag k="name" v="national school of applied science"/>
  </node>
  <node id="2319322336" lat="35.7571531" lon="-5.8262825" version="1" timestamp="2013-05-25T09:19:57Z" changeset="16276341" uid="1483133" user="isamki">
    <tag k="amenity" v="school"/>
    <tag k="building" v="yes"/>
    <tag k="name" v="Ecole Dakhla"/>
    <tag k="name:ar" v="مدرسة الدخلة"/>
  </node>
  <node id="2320160828" lat="34.9688867" lon="-5.2762159" version="1" timestamp="2013-05-25T22:55:40Z" changeset="16285923" uid="1483133" user="isamki">
    <tag k="amenity" v="school"/>
    <tag k="name" v="Ecole"/>
  </node>
  <node id="2330882276" lat="36.8796467" lon="-5.4095805" version="1" timestamp="2013-06-03T18:35:25Z" changeset="16410823" uid="287634" user="andreas klug">
    <tag k="amenity" v="school"/>
    <tag k="name" v="Escuela de Parapente"/>
    <tag k="website" v="http://www.lijarsur.com/"/>
  </node>
  <node id="2331670478" lat="36.8809267" lon="-5.4071245" version="4" timestamp="2013-06-08T21:41:59Z" changeset="16471866" uid="290680" user="wheelmap_visitor">
    <tag k="amenity" v="school"/>
    <tag k="building" v="yes"/>
    <tag k="name" v="Centro de Formación y Negocio"/>
    <tag k="wheelchair" v="yes"/>
  </node>
  <node id="2334032889" lat="36.7079242" lon="-4.4414347" version="2" timestamp="2013-08-11T23:42:25Z" changeset="17310671" uid="253114" user="Pedrocrespo">
    <tag k="addr:city" v="Málaga"/>
    <tag k="addr:housenumber" v="s/n"/>
    <tag k="addr:postcode" v="29006"/>
    <tag k="addr:street" v="Calle de Agustín Martín Carrión"/>
    <tag k="amenity" v="school"/>
    <tag k="name" v="IES Miguel Romero Esteo"/>
    <tag k="operator" v="Junta de Andalucía"/>
  </node>
  <node id="2334032960" lat="36.7096788" lon="-4.4389563" version="2" timestamp="2015-05-15T08:17:57Z" changeset="31164560" uid="2894931" user="CPrados">
    <tag k="amenity" v="school"/>
    <tag k="name" v="CEIP Hans Christian Andersen"/>
  </node>
  <node id="2334032966" lat="36.7079392" lon="-4.4423654" version="2" timestamp="2013-08-11T23:42:24Z" changeset="17310671" uid="253114" user="Pedrocrespo">
    <tag k="addr:city" v="Málaga"/>
    <tag k="addr:housenumber" v="6"/>
    <tag k="addr:postcode" v="29006"/>
    <tag k="addr:street" v="Calle de Agustín Martín Carrión"/>
    <tag k="amenity" v="school"/>
    <tag k="name" v="IES Ben Gabirol"/>
    <tag k="operator" v="Junta de Andalucía"/>
  </node>
  <node id="2394420263" lat="37.3840049" lon="-5.7272990" version="1" timestamp="2013-07-23T20:32:50Z" changeset="17067125" uid="1672977" user="fcadenas">
    <tag k="amenity" v="school"/>
  </node>
  <node id="2394420267" lat="37.3839395" lon="-5.7254785" version="2" timestamp="2014-08-20T17:36:49Z" changeset="24891146" uid="544842" user="comcinco">
    <tag k="addr:city" v="El Viso del Alcor"/>
    <tag k="addr:postcode" v="41520"/>
    <tag k="addr:street" v="Calderón de la Barca"/>
    <tag k="amenity" v="hospital"/>
    <tag k="name" v="Centro de Salud"/>
    <tag k="phone" v="955 64 95 48"/>
    <tag k="wheelchair" v="yes"/>
  </node>
  <node id="2394438765" lat="37.3878453" lon="-5.7196976" version="1" timestamp="2013-07-23T20:42:09Z" changeset="17067125" uid="1672977" user="fcadenas">
    <tag k="amenity" v="school"/>
  </node>
  <node id="2394438775" lat="37.3822828" lon="-5.7251318" version="1" timestamp="2013-07-23T20:42:09Z" changeset="17067125" uid="1672977" user="fcadenas">
    <tag k="amenity" v="school"/>
  </node>
  <node id="2397815404" lat="36.7189480" lon="-4.3585731" version="1" timestamp="2013-07-26T22:34:16Z" changeset="17107953" uid="1683607" user="ezequiel112">
    <tag k="amenity" v="school"/>
    <tag k="name" v="SAFA-ICET"/>
  </node>
  <node id="2400978931" lat="37.5175352" lon="-5.9816506" version="1" timestamp="2013-07-29T22:31:18Z" changeset="17145834" uid="1691643" user="candaocerrao">
    <tag k="amenity" v="hospital"/>
  </node>
  <node id="2415443564" lat="36.7107002" lon="-4.4385798" version="1" timestamp="2013-08-12T00:31:51Z" changeset="17310940" uid="253114" user="Pedrocrespo">
    <tag k="amenity" v="hospital"/>
    <tag k="name" v="Centro de Salud La Unión"/>
  </node>
  <node id="2417745117" lat="37.4364687" lon="-4.1958960" version="1" timestamp="2013-08-13T12:25:52Z" changeset="17329886" uid="1712856" user="FJRuizRuano">
    <tag k="amenity" v="school"/>
    <tag k="name" v="Casa de la Cultura / Conservatorio"/>
  </node>
  <node id="2417745135" lat="37.4375531" lon="-4.2010877" version="1" timestamp="2013-08-13T12:25:52Z" changeset="17329886" uid="1712856" user="FJRuizRuano">
    <tag k="amenity" v="school"/>
    <tag k="name" v="IES Carmen Pantión"/>
  </node>
  <node id="2417745176" lat="37.4367737" lon="-4.2017186" version="2" timestamp="2013-08-15T13:17:40Z" changeset="17359208" uid="1712856" user="FJRuizRuano">
    <tag k="amenity" v="school"/>
    <tag k="name" v="Colegio Luque Onieva"/>
  </node>
  <node id="2417757955" lat="37.4406897" lon="-4.2113627" version="2" timestamp="2014-08-08T20:43:58Z" changeset="24623913" uid="1712856" user="FJRuizRuano">
    <tag k="amenity" v="school"/>
    <tag k="name" v="Colegio Ángel Carrillo"/>
  </node>
  <node id="2417757957" lat="37.4408431" lon="-4.2119635" version="2" timestamp="2014-08-08T20:43:58Z" changeset="24623913" uid="1712856" user="FJRuizRuano">
    <tag k="amenity" v="school"/>
    <tag k="name" v="I.E.S. Fernando III &quot;El Santo&quot;"/>
  </node>
  <node id="2417757968" lat="37.4359405" lon="-4.1983036" version="2" timestamp="2013-08-15T13:17:41Z" changeset="17359208" uid="1712856" user="FJRuizRuano">
    <tag k="amenity" v="school"/>
    <tag k="name" v="Colegio Virgen de la Cabeza"/>
  </node>
  <node id="2417757975" lat="37.4409904" lon="-4.2129484" version="2" timestamp="2014-08-08T20:43:58Z" changeset="24623913" uid="1712856" user="FJRuizRuano">
    <tag k="amenity" v="school"/>
    <tag k="name" v="I.E.S. Álvarez Cubero"/>
  </node>
  <node id="2417782466" lat="37.4371715" lon="-4.1895714" version="1" timestamp="2013-08-13T13:12:55Z" changeset="17329886" uid="1712856" user="FJRuizRuano">
    <tag k="amenity" v="school"/>
    <tag k="name" v="Colegio Niceto Alcalá-Zamora"/>
  </node>
  <node id="2417805611" lat="37.4397355" lon="-4.1947951" version="1" timestamp="2013-08-13T13:41:24Z" changeset="17331155" uid="1712856" user="FJRuizRuano">
    <tag k="amenity" v="school"/>
    <tag k="name" v="Colegio H.H. Maristas"/>
  </node>
  <node id="2417820267" lat="37.4389348" lon="-4.1994593" version="2" timestamp="2013-08-21T13:39:41Z" changeset="17440479" uid="1712856" user="FJRuizRuano">
    <tag k="amenity" v="school"/>
    <tag k="name" v="Colegio Camacho Melendo"/>
  </node>
  <node id="2425948963" lat="37.3468301" lon="-6.5417864" version="1" timestamp="2013-08-20T20:30:45Z" changeset="17431659" uid="1719905" user="MoViLiZaDo">
    <tag k="amenity" v="school"/>
    <tag k="name" v="IES Delgado Hernández"/>
  </node>
  <node id="2425949392" lat="37.3420327" lon="-6.5406904" version="1" timestamp="2013-08-20T20:31:43Z" changeset="17431659" uid="1719905" user="MoViLiZaDo">
    <tag k="amenity" v="school"/>
    <tag k="name" v="CEIP Reyes Católicos"/>
  </node>
  <node id="2425961428" lat="37.3377878" lon="-6.5414566" version="1" timestamp="2013-08-20T20:51:57Z" changeset="17432291" uid="1719905" user="MoViLiZaDo">
    <tag k="amenity" v="school"/>
    <tag k="name" v="Centro de Educación Permanente &quot;La Piña&quot;"/>
  </node>
  <node id="2425963053" lat="37.3392925" lon="-6.5339294" version="1" timestamp="2013-08-20T20:55:54Z" changeset="17432291" uid="1719905" user="MoViLiZaDo">
    <tag k="amenity" v="school"/>
    <tag k="name" v="CEIP Manuel Pérez"/>
  </node>
  <node id="2425963078" lat="37.3393161" lon="-6.5342376" version="1" timestamp="2013-08-20T20:56:17Z" changeset="17432291" uid="1719905" user="MoViLiZaDo">
    <tag k="amenity" v="hospital"/>
    <tag k="name" v="Centro médico"/>
  </node>
  <node id="2428062151" lat="37.4374437" lon="-4.1975655" version="1" timestamp="2013-08-22T13:07:01Z" changeset="17455252" uid="1712856" user="FJRuizRuano">
    <tag k="amenity" v="school"/>
    <tag k="name" v="Biblioteca"/>
  </node>
  <node id="2450850938" lat="37.2807153" lon="-7.1490647" version="1" timestamp="2013-09-08T18:49:02Z" changeset="17738188" uid="74971" user="juanluisrp">
    <tag k="amenity" v="school"/>
    <tag k="school" v="entrance"/>
  </node>
  <node id="2461501429" lat="37.0418162" lon="-4.8548062" version="2" timestamp="2013-09-25T06:33:26Z" changeset="18021764" uid="241061" user="Leonardo Velasco">
    <tag k="amenity" v="school"/>
    <tag k="name" v="Colegio San José"/>
  </node>
  <node id="2462707088" lat="37.0175873" lon="-4.5618886" version="1" timestamp="2013-09-18T10:55:27Z" changeset="17903537" uid="241061" user="Leonardo Velasco">
    <tag k="amenity" v="school"/>
    <tag k="name" v="Conservatorio Municipal"/>
  </node>
  <node id="2483410422" lat="37.3832415" lon="-6.0355502" version="2" timestamp="2013-10-05T11:02:33Z" changeset="18193392" uid="1765779" user="Enhermar">
    <tag k="addr:city" v="Camas"/>
    <tag k="addr:housenumber" v="s/n"/>
    <tag k="addr:postcode" v="41900"/>
    <tag k="addr:street" v="Virgen de las Angustias"/>
    <tag k="amenity" v="school"/>
    <tag k="name" v="C.E.I.P. Maestro Arturo Giner"/>
  </node>
  <node id="2497077867" lat="37.4048799" lon="-6.0353485" version="1" timestamp="2013-10-15T09:22:20Z" changeset="18364684" uid="1775263" user="paroan_91">
    <tag k="amenity" v="hospital"/>
    <tag k="emergency" v="yes"/>
    <tag k="name" v="Ambulatorio local"/>
  </node>
  <node id="2513374496" lat="37.4655525" lon="-6.0137229" version="1" timestamp="2013-10-29T21:52:45Z" changeset="18609260" uid="1790005" user="amartinez">
    <tag k="amenity" v="hospital"/>
    <tag k="emergency" v="yes"/>
    <tag k="name" v="Centro de Salud La Algaba"/>
  </node>
  <node id="2521678032" lat="35.7650257" lon="-5.8361224" version="1" timestamp="2013-11-06T00:14:54Z" changeset="18739946" uid="1796778" user="hichamej">
    <tag k="amenity" v="school"/>
  </node>
  <node id="2565933068" lat="36.9824493" lon="-5.9407593" version="1" timestamp="2013-12-05T07:49:46Z" changeset="19284427" uid="235316" user="jacksparrow">
    <tag k="amenity" v="hospital"/>
    <tag k="name" v="Centro de Salud"/>
  </node>
  <node id="2615159024" lat="36.7234775" lon="-4.4223377" version="1" timestamp="2014-01-08T19:19:47Z" changeset="19888356" uid="1256497" user="andi9876">
    <tag k="amenity" v="hospital"/>
    <tag k="name" v="San Julián"/>
  </node>
  <node id="2621175170" lat="37.3626573" lon="-6.0348020" version="2" timestamp="2014-10-30T14:07:17Z" changeset="26436775" uid="655693" user="nackd">
    <tag k="amenity" v="school"/>
    <tag k="name" v="Centro de Gestión Avanzado"/>
  </node>
  <node id="2623256360" lat="37.2397846" lon="-5.1001531" version="1" timestamp="2014-01-15T09:49:42Z" changeset="20010095" uid="241061" user="Leonardo Velasco">
    <tag k="amenity" v="school"/>
    <tag k="name" v="C.E.P. Especial Ntra.Sra. de la Merced"/>
  </node>
  <node id="2623256904" lat="37.2396814" lon="-5.1036724" version="1" timestamp="2014-01-15T09:50:53Z" changeset="20010113" uid="241061" user="Leonardo Velasco">
    <tag k="addr:city" v="Osuna"/>
    <tag k="addr:housenumber" v="1"/>
    <tag k="addr:street" v="Calle Cueto"/>
    <tag k="amenity" v="school"/>
    <tag k="name" v="Centro Privado de Enseñanza Santa Ángela"/>
  </node>
  <node id="2629644143" lat="37.1958256" lon="-7.4155224" version="2" timestamp="2014-06-05T11:32:35Z" changeset="22753916" uid="1864530" user="SGU">
    <tag k="addr:city" v="Vila Real de Santo António"/>
    <tag k="addr:housename" v="Consultório Médico"/>
    <tag k="addr:housenumber" v="36"/>
    <tag k="addr:postcode" v="8900"/>
    <tag k="addr:street" v="Rua José Barão"/>
    <tag k="amenity" v="hospital"/>
    <tag k="name" v="Consultório Médico"/>
  </node>
  <node id="2629676430" lat="37.1957005" lon="-7.4168267" version="2" timestamp="2014-12-07T07:04:02Z" changeset="27305512" uid="1869287" user="Spec80">
    <tag k="addr:city" v="Vila Real de Santo António"/>
    <tag k="addr:housename" v="Consultório Doutor Serge Conceição"/>
    <tag k="addr:housenumber" v="17"/>
    <tag k="addr:postcode" v="8900"/>
    <tag k="addr:street" v="Rua Doutor Manuel D Arriaga"/>
    <tag k="amenity" v="hospital"/>
    <tag k="name" v="Consultório Doutor Serge Conceição"/>
    <tag k="source" v="SGU"/>
  </node>
  <node id="2629739929" lat="37.1935783" lon="-7.4158263" version="3" timestamp="2014-06-13T14:53:26Z" changeset="22910310" uid="1864530" user="SGU">
    <tag k="addr:city" v="Vila Real de Santo António"/>
    <tag k="addr:housename" v="Clínica do Sotavento"/>
    <tag k="addr:housenumber" v="29"/>
    <tag k="addr:postcode" v="8900"/>
    <tag k="addr:street" v="Rua Dr. Sousa Martins"/>
    <tag k="amenity" v="hospital"/>
    <tag k="name" v="Clínica do Sotavento"/>
    <tag k="source" v="SGU"/>
  </node>
  <node id="2630137497" lat="37.1913316" lon="-7.4180497" version="1" timestamp="2014-01-20T17:45:55Z" changeset="20107899" uid="1864530" user="SGU">
    <tag k="addr:city" v="Vila real de Santo António"/>
    <tag k="addr:housename" v="Escola Básica 1/JI Professor Caldeira Alexandre"/>
    <tag k="addr:postcode" v="8900-211"/>
    <tag k="amenity" v="school"/>
    <tag k="name" v="Escola Básica 1/JI Professor Caldeira Alexandre"/>
  </node>
  <node id="2632103415" lat="37.3593203" lon="-6.0332178" version="1" timestamp="2014-01-22T09:19:35Z" changeset="20137691" uid="670163" user="Juan José Torvaño T">
    <tag k="amenity" v="hospital"/>
    <tag k="emergency" v="yes"/>
  </node>
  <node id="2632202433" lat="37.0564332" lon="-5.8328019" version="1" timestamp="2014-01-22T11:26:12Z" changeset="20139489" uid="235316" user="jacksparrow">
    <tag k="amenity" v="hospital"/>
    <tag k="name" v="Centro de Salud"/>
  </node>
  <node id="2639677299" lat="37.1817120" lon="-4.3355288" version="1" timestamp="2014-01-27T13:57:36Z" changeset="20229313" uid="241061" user="Leonardo Velasco">
    <tag k="amenity" v="hospital"/>
    <tag k="name" v="Consultorio"/>
  </node>
  <node id="2639678019" lat="37.1825837" lon="-4.3322572" version="1" timestamp="2014-01-27T13:59:33Z" changeset="20229340" uid="241061" user="Leonardo Velasco">
    <tag k="amenity" v="school"/>
    <tag k="name" v="CEIP Rafael Alberti"/>
  </node>
  <node id="2639682056" lat="37.1847770" lon="-4.4485437" version="1" timestamp="2014-01-27T14:03:59Z" changeset="20229424" uid="241061" user="Leonardo Velasco">
    <tag k="amenity" v="school"/>
    <tag k="name" v="CEIP Miguel Berrocal"/>
  </node>
  <node id="2641969057" lat="37.1243792" lon="-4.8714795" version="1" timestamp="2014-01-29T11:47:35Z" changeset="20263828" uid="241061" user="Leonardo Velasco">
    <tag k="addr:city" v="Sierra de Yeguas"/>
    <tag k="addr:street" v="Calle Pintor Antonio Ramos"/>
    <tag k="amenity" v="hospital"/>
    <tag k="name" v="Consultorio Médico"/>
  </node>
  <node id="2645346887" lat="37.5396620" lon="-5.0837669" version="1" timestamp="2014-01-31T10:11:51Z" changeset="20297236" uid="241061" user="Leonardo Velasco">
    <tag k="amenity" v="school"/>
    <tag k="name" v="CEIP Calvo Sotelo"/>
  </node>
  <node id="2645349926" lat="37.5417890" lon="-5.0813936" version="2" timestamp="2015-02-25T10:47:17Z" changeset="29088158" uid="526776" user="Graeme Herbert">
    <tag k="addr:city" v="Écija"/>
    <tag k="addr:housenumber" v="8"/>
    <tag k="addr:postcode" v="41400"/>
    <tag k="addr:street" v="Calle Compañía"/>
    <tag k="amenity" v="school"/>
    <tag k="name" v="CEIP Astigi"/>
    <tag k="phone" v="+34 95 587 95 18"/>
    <tag k="website" v="http://www.juntadeandalucia.es/averroes/ceipastigi/"/>
  </node>
  <node id="2653866972" lat="37.3904795" lon="-4.7698814" version="2" timestamp="2014-02-04T15:44:58Z" changeset="20374312" uid="566382" user="pirulotropical">
    <tag k="addr:city" v="Puente Genil"/>
    <tag k="addr:housename" v="Colegio Compañía de María"/>
    <tag k="addr:housenumber" v="5"/>
    <tag k="addr:postcode" v="14500"/>
    <tag k="addr:street" v="Susana Benitez"/>
    <tag k="amenity" v="school"/>
    <tag k="name" v="Compañía de María"/>
    <tag k="phone" v="+34 957 602 226"/>
  </node>
  <node id="2653872543" lat="37.3904407" lon="-4.7731419" version="1" timestamp="2014-02-04T15:44:58Z" changeset="20374312" uid="566382" user="pirulotropical">
    <tag k="addr:city" v="Puente Genil"/>
    <tag k="addr:housename" v="Colegio José María Pemán"/>
    <tag k="addr:postcode" v="14500"/>
    <tag k="addr:street" v="José María Pemán"/>
    <tag k="amenity" v="school"/>
    <tag k="name" v="Colegio Público José María Pemán"/>
    <tag k="phone" v="+34 957 61 89 16"/>
  </node>
  <node id="2660076776" lat="37.8921694" lon="-4.7568766" version="1" timestamp="2014-02-07T20:11:50Z" changeset="20436918" uid="1924327" user="Academia AHOY">
    <tag k="addr:city" v="Córdoba"/>
    <tag k="addr:housename" v="C/Pintor Matisse s/n"/>
    <tag k="addr:postcode" v="14007"/>
    <tag k="amenity" v="school"/>
    <tag k="name" v="Academia AHOY"/>
    <tag k="operator" v="Academia de idiomas"/>
  </node>
  <node id="2689440074" lat="35.1919126" lon="-6.1538060" version="1" timestamp="2014-02-25T09:30:21Z" changeset="20766549" uid="1953353" user="Mohamed Amjad LASRI">
    <tag k="amenity" v="school"/>
    <tag k="name" v="Ibn Khaldoun"/>
  </node>
  <node id="2689650713" lat="35.1879657" lon="-6.1557101" version="1" timestamp="2014-02-25T13:38:29Z" changeset="20770476" uid="1953353" user="Mohamed Amjad LASRI">
    <tag k="amenity" v="school"/>
    <tag k="name" v="Les oiseaux du paradis"/>
  </node>
  <node id="2689650715" lat="35.1889026" lon="-6.1553343" version="1" timestamp="2014-02-25T13:38:29Z" changeset="20770476" uid="1953353" user="Mohamed Amjad LASRI">
    <tag k="amenity" v="school"/>
    <tag k="name" v="Luis Vives"/>
  </node>
  <node id="2689650748" lat="35.1953261" lon="-6.1565456" version="1" timestamp="2014-02-25T13:38:30Z" changeset="20770476" uid="1953353" user="Mohamed Amjad LASRI">
    <tag k="amenity" v="school"/>
    <tag k="name" v="Anas Ibn Malik"/>
  </node>
  <node id="2689650751" lat="35.1934980" lon="-6.1675516" version="1" timestamp="2014-02-25T13:38:30Z" changeset="20770476" uid="1953353" user="Mohamed Amjad LASRI">
    <tag k="amenity" v="school"/>
  </node>
  <node id="2698423819" lat="37.4888614" lon="-5.9812987" version="1" timestamp="2014-03-02T19:10:57Z" changeset="20871330" uid="1962871" user="Whatever111">
    <tag k="amenity" v="hospital"/>
    <tag k="name" v="Centro Medico"/>
    <tag k="wheelchair" v="yes"/>
  </node>
  <node id="2702954894" lat="37.1904236" lon="-7.4131180" version="2" timestamp="2014-06-02T14:25:47Z" changeset="22695019" uid="1864530" user="SGU">
    <tag k="addr:street" v="Avenida da República"/>
    <tag k="amenity" v="school"/>
    <tag k="name" v="Conservatório Regional de V. R. S. A."/>
  </node>
  <node id="2731000998" lat="36.5073129" lon="-6.2750749" version="2" timestamp="2014-03-21T12:24:28Z" changeset="21226095" uid="571978" user="alkayata">
    <tag k="addr:housenumber" v="24"/>
    <tag k="addr:street" v="Murillo"/>
    <tag k="amenity" v="school"/>
    <tag k="name" v="Academia La Laguna"/>
  </node>
  <node id="2734011624" lat="36.7705556" lon="-4.3204722" version="1" timestamp="2014-03-22T14:59:16Z" changeset="21245425" uid="1997284" user="pktml">
    <tag k="amenity" v="hospital"/>
    <tag k="name" v="Centro Medico de Olias"/>
  </node>
  <node id="2744321914" lat="36.1347456" lon="-5.4507960" version="2" timestamp="2014-04-03T15:22:38Z" changeset="21478744" uid="571978" user="alkayata">
    <tag k="amenity" v="school"/>
    <tag k="name" v="Botton English Centre"/>
    <tag k="note" v="Academia Privada"/>
    <tag k="phone" v="+34 956 65 00 97"/>
  </node>
  <node id="2849460569" lat="35.7780655" lon="-5.8218080" version="1" timestamp="2014-05-10T23:17:41Z" changeset="22260744" uid="2067123" user="Jlux">
    <tag k="alt_name" v="Sbitar Spanyol"/>
    <tag k="amenity" v="hospital"/>
    <tag k="name" v="Hopital Español"/>
  </node>
  <node id="2935215997" lat="36.7298078" lon="-4.4332455" version="1" timestamp="2014-06-27T09:26:13Z" changeset="23209339" uid="241061" user="Leonardo Velasco">
    <tag k="amenity" v="hospital"/>
    <tag k="name" v="Urgencias"/>
  </node>
  <node id="2938519135" lat="37.3248903" lon="-5.9281598" version="3" timestamp="2014-06-29T08:02:03Z" changeset="23264341" uid="335661" user="Rickydh">
    <tag k="amenity" v="school"/>
    <tag k="name" v="CEIP Olivar de Quinto"/>
  </node>
  <node id="2954728087" lat="36.6004744" lon="-4.5273844" version="2" timestamp="2015-04-01T22:28:48Z" changeset="29917095" uid="24440" user="jaakkoh">
    <tag k="amenity" v="school"/>
    <tag k="name" v="Colegio Público El Tomillar"/>
  </node>
  <node id="2967203535" lat="36.7495786" lon="-5.1537727" version="1" timestamp="2014-07-17T07:59:27Z" changeset="24196054" uid="2191789" user="francajama">
    <tag k="amenity" v="school"/>
  </node>
  <node id="2992998990" lat="37.5255624" lon="-4.9188508" version="1" timestamp="2014-08-02T21:30:59Z" changeset="24505336" uid="999171" user="trutorj">
    <tag k="amenity" v="hospital"/>
    <tag k="emergency" v="no"/>
    <tag k="name" v="Centro Médico"/>
  </node>
  <node id="3004053921" lat="36.7776562" lon="-6.3496064" version="1" timestamp="2014-08-08T07:13:08Z" changeset="24609659" uid="2244118" user="fjtorres">
    <tag k="amenity" v="hospital"/>
    <tag k="name" v="Centro de salud del barrio alto"/>
  </node>
  <node id="3006589766" lat="37.3755380" lon="-4.9515731" version="1" timestamp="2014-08-09T10:29:54Z" changeset="24631181" uid="2245112" user="JUAN T">
    <tag k="amenity" v="school"/>
  </node>
  <node id="3010935691" lat="36.1671424" lon="-5.3632382" version="1" timestamp="2014-08-11T18:45:15Z" changeset="24685276" uid="308077" user="antoniovj95">
    <tag k="amenity" v="school"/>
    <tag k="name" v="C.P Carlos V"/>
  </node>
  <node id="3011983120" lat="37.3363512" lon="-6.5456161" version="1" timestamp="2014-08-12T08:09:39Z" changeset="24695906" uid="623957" user="CarlosGV">
    <tag k="amenity" v="school"/>
    <tag k="name" v="Las Viñas"/>
  </node>
  <node id="3012411659" lat="37.8698889" lon="-4.1856889" version="3" timestamp="2015-03-26T17:00:37Z" changeset="29758439" uid="2512300" user="samely">
    <tag k="amenity" v="hospital"/>
    <tag k="name" v="Centro de salud"/>
  </node>
  <node id="3013028131" lat="36.9573994" lon="-4.1204760" version="1" timestamp="2014-08-12T19:51:08Z" changeset="24709728" uid="2257162" user="Alejandrorm">
    <tag k="amenity" v="hospital"/>
    <tag k="name" v="Consultorio"/>
  </node>
  <node id="3045928482" lat="37.2604607" lon="-7.1941839" version="1" timestamp="2014-08-27T14:57:01Z" changeset="25053899" uid="2290376" user="JASG Lepe">
    <tag k="Status" v="closed"/>
    <tag k="amenity" v="hospital"/>
    <tag k="emergency" v="no"/>
    <tag k="name" v="Hospital Virgen de la Bella"/>
  </node>
  <node id="3050129846" lat="36.7219390" lon="-4.3460536" version="1" timestamp="2014-08-30T09:46:05Z" changeset="25113706" uid="2297643" user="ivansl14">
    <tag k="amenity" v="school"/>
    <tag k="name" v="Platero"/>
  </node>
  <node id="3060352278" lat="36.5948214" lon="-6.2331930" version="1" timestamp="2014-09-05T02:49:52Z" changeset="25239755" uid="1712104" user="JacobT13">
    <tag k="amenity" v="school"/>
    <tag k="name" v="C.E.I.P. Menesteo"/>
  </node>
  <node id="3105612829" lat="35.1674670" lon="-5.2654636" version="2" timestamp="2014-11-10T13:30:04Z" changeset="26687966" uid="2428025" user="ilyass mahraz">
    <tag k="amenity" v="hospital"/>
    <tag k="name:fr" v="Hospital Bab El Ayen"/>
  </node>
  <node id="3106818885" lat="35.1712430" lon="-5.2603577" version="1" timestamp="2014-10-02T10:58:56Z" changeset="25807758" uid="2359309" user="Elmar Loreti">
    <tag k="amenity" v="school"/>
    <tag k="name" v="Ecole Primaire Cheik Mohamed Ben Ayed"/>
  </node>
  <node id="3109036648" lat="36.7267408" lon="-4.4252498" version="1" timestamp="2014-10-03T09:56:59Z" changeset="25827835" uid="2371079" user="desiree_palomino">
    <tag k="amenity" v="school"/>
    <tag k="name" v="Colegio San Juan de Dios"/>
  </node>
  <node id="3123776464" lat="37.4080388" lon="-6.3917372" version="1" timestamp="2014-10-11T11:41:04Z" changeset="26002082" uid="377881" user="lipevazquez">
    <tag k="amenity" v="school"/>
    <tag k="name" v="Colegio Público Virgen de Luna"/>
  </node>
  <node id="3149399837" lat="37.3933499" lon="-5.9976993" version="1" timestamp="2014-10-25T16:54:27Z" changeset="26325461" uid="291857" user="nonopp">
    <tag k="amenity" v="school"/>
    <tag k="name" v="Instituto María Inmaculada"/>
  </node>
  <node id="3150232578" lat="37.3896201" lon="-5.9846806" version="1" timestamp="2014-10-26T07:40:28Z" changeset="26336358" uid="231942" user="LaTorpeda">
    <tag k="addr:city" v="Sevilla / Casco Antiguo / San Bartolomé"/>
    <tag k="addr:housenumber" v="2"/>
    <tag k="addr:street" v="Plaza de San Agustín"/>
    <tag k="amenity" v="school"/>
    <tag k="name" v="Academia San Ildefonso. Oposiciones"/>
  </node>
  <node id="3150438971" lat="37.3871347" lon="-5.9902518" version="1" timestamp="2014-10-26T10:51:38Z" changeset="26339205" uid="74971" user="juanluisrp">
    <tag k="addr:city" v="Sevilla"/>
    <tag k="addr:country" v="ES"/>
    <tag k="addr:housenumber" v="10"/>
    <tag k="addr:postcode" v="41004"/>
    <tag k="addr:street" v="Calle Guzmán el Bueno"/>
    <tag k="amenity" v="school"/>
    <tag k="email" v="hsjm_Sevilla@inicia.es"/>
    <tag k="fax" v="+34 954224396"/>
    <tag k="fee" v="yes"/>
    <tag k="isced:level" v="0"/>
    <tag k="name" v="Colegio Educación Infantil San José de la Montaña"/>
    <tag k="phone" v="+34 954222381"/>
    <tag k="wheelchair" v="yes"/>
  </node>
  <node id="3153555148" lat="35.1688177" lon="-5.2717462" version="2" timestamp="2015-04-08T05:52:15Z" changeset="30055118" uid="2126146" user="johnparis">
    <tag k="amenity" v="hospital"/>
    <tag k="name" v="Croissant Rouge الهلال الأحمر"/>
    <tag k="name:ar" v="الهلال الأحمر"/>
    <tag k="name:fr" v="Croissant Rouge"/>
  </node>
  <node id="3156231369" lat="35.1675325" lon="-5.2619854" version="1" timestamp="2014-10-29T14:08:03Z" changeset="26412595" uid="2319769" user="Casa Elias">
    <tag k="amenity" v="school"/>
    <tag k="name" v="Lala Fatima"/>
    <tag k="name:fr" v="Lala Fatima"/>
  </node>
  <node id="3168405186" lat="35.1691664" lon="-5.2627321" version="1" timestamp="2014-11-05T12:11:59Z" changeset="26569429" uid="2428025" user="ilyass mahraz">
    <tag k="amenity" v="hospital"/>
    <tag k="name" v="Hopital Al Haouta"/>
  </node>
  <node id="3178727303" lat="35.1659944" lon="-5.2635040" version="1" timestamp="2014-11-10T13:04:55Z" changeset="26687538" uid="2428025" user="ilyass mahraz">
    <tag k="amenity" v="school"/>
    <tag k="name" v="Collège Hassan II"/>
  </node>
  <node id="3178762670" lat="35.1676056" lon="-5.2657200" version="1" timestamp="2014-11-10T13:30:03Z" changeset="26687966" uid="2428025" user="ilyass mahraz">
    <tag k="amenity" v="hospital"/>
    <tag k="name" v="Délégation de la Santé"/>
  </node>
  <node id="3178762671" lat="35.1671466" lon="-5.2653766" version="1" timestamp="2014-11-10T13:30:04Z" changeset="26687966" uid="2428025" user="ilyass mahraz">
    <tag k="amenity" v="school"/>
    <tag k="name" v="Ecole Hassan Abi Jamaa"/>
  </node>
  <node id="3195500307" lat="35.1804540" lon="-5.2801655" version="1" timestamp="2014-11-19T13:25:14Z" changeset="26886437" uid="2428025" user="ilyass mahraz">
    <tag k="amenity" v="school"/>
    <tag k="name" v="collège Adrar"/>
  </node>
  <node id="3195500309" lat="35.1801737" lon="-5.2752561" version="1" timestamp="2014-11-19T13:25:14Z" changeset="26886437" uid="2428025" user="ilyass mahraz">
    <tag k="amenity" v="school"/>
    <tag k="name" v="lycée Al idrissi"/>
  </node>
  <node id="3195500318" lat="35.1742815" lon="-5.2744981" version="1" timestamp="2014-11-19T13:25:15Z" changeset="26886437" uid="2428025" user="ilyass mahraz">
    <tag k="amenity" v="school"/>
    <tag k="name" v="école Touris"/>
  </node>
  <node id="3195514325" lat="35.1690506" lon="-5.2703159" version="2" timestamp="2014-11-26T12:21:29Z" changeset="27043687" uid="2428025" user="ilyass mahraz">
    <tag k="amenity" v="hospital"/>
    <tag k="name" v="Hôpital Mohammed V"/>
  </node>
  <node id="3195514331" lat="35.1676845" lon="-5.2722756" version="1" timestamp="2014-11-19T13:42:38Z" changeset="26886712" uid="2428025" user="ilyass mahraz">
    <tag k="amenity" v="school"/>
    <tag k="name" v="lycée Moulay Rachid"/>
  </node>
  <node id="3195516045" lat="35.1670117" lon="-5.2663503" version="1" timestamp="2014-11-19T13:46:02Z" changeset="26886782" uid="2428025" user="ilyass mahraz">
    <tag k="amenity" v="school"/>
    <tag k="name" v="école Moulay Ali bin Rashid"/>
  </node>
  <node id="3195516046" lat="35.1668360" lon="-5.2667830" version="1" timestamp="2014-11-19T13:46:02Z" changeset="26886782" uid="2428025" user="ilyass mahraz">
    <tag k="amenity" v="school"/>
    <tag k="name" v="école Nawazli"/>
  </node>
  <node id="3199813691" lat="37.3927961" lon="-5.9843111" version="1" timestamp="2014-11-22T11:44:02Z" changeset="26949479" uid="231942" user="LaTorpeda">
    <tag k="addr:city" v="Sevilla / Casco Antiguo / San Bartolomé"/>
    <tag k="addr:housenumber" v="8 acc a"/>
    <tag k="addr:postcode" v="41003"/>
    <tag k="addr:street" v="Calle Diego de Merlo"/>
    <tag k="amenity" v="school"/>
    <tag k="name" v="Pequeños artistas"/>
    <tag k="wheelchair" v="limited"/>
  </node>
  <node id="3250693761" lat="36.5072484" lon="-6.2698079" version="1" timestamp="2014-12-24T11:28:33Z" changeset="27669797" uid="648304" user="elfio">
    <tag k="amenity" v="hospital"/>
    <tag k="name" v="Clínica Astarté"/>
  </node>
  <node id="3280984346" lat="36.5936526" lon="-5.2611982" version="1" timestamp="2015-01-10T20:19:40Z" changeset="28049155" uid="2565608" user="Benalauria">
    <tag k="amenity" v="hospital"/>
  </node>
  <node id="3332972470" lat="36.2135005" lon="-5.4309108" version="1" timestamp="2015-02-05T22:55:23Z" changeset="28641636" uid="2635262" user="rexmarley">
    <tag k="amenity" v="school"/>
  </node>
  <node id="3343615801" lat="36.5438830" lon="-4.6414564" version="1" timestamp="2015-02-11T10:25:42Z" changeset="28769858" uid="2595123" user="NachoCarral">
    <tag k="amenity" v="hospital"/>
    <tag k="name" v="CARE Mijas"/>
  </node>
  <node id="3353760307" lat="37.7615428" lon="-3.7953128" version="2" timestamp="2015-03-30T09:57:10Z" changeset="29845850" uid="2569117" user="atuan">
    <tag k="addr:city" v="Jaén"/>
    <tag k="addr:housenumber" v="4"/>
    <tag k="addr:postcode" v="23002"/>
    <tag k="addr:street" v="Calle Juan Montilla"/>
    <tag k="amenity" v="hospital"/>
    <tag k="name" v="Centro de Salud San Felipe"/>
    <tag k="phone" v="953964212"/>
  </node>
  <node id="3373027382" lat="36.8785896" lon="-3.7418332" version="2" timestamp="2015-02-26T12:30:04Z" changeset="29112403" uid="2707115" user="Huerto Alegre">
    <tag k="addr:city" v="Albuñuelas"/>
    <tag k="addr:housename" v="Granja Escuela Huerto Alegre"/>
    <tag k="addr:housenumber" v="Km 27"/>
    <tag k="addr:postcode" v="18659"/>
    <tag k="addr:street" v="Carretera de Almuñecar"/>
    <tag k="amenity" v="school"/>
    <tag k="ele" v="1200"/>
    <tag k="name" v="Granja Escuela Huerto Alegre"/>
    <tag k="name:en" v="Farm School Huerto Alegre"/>
    <tag k="phone" v="+31 958228496"/>
    <tag k="source" v="Huerto Alegre"/>
    <tag k="website" v="www.huertoalegre.com"/>
    <tag k="wheelchair" v="yes"/>
  </node>
  <node id="3433955408" lat="36.6816068" lon="-6.1167244" version="4" timestamp="2015-04-05T17:38:21Z" changeset="29997032" uid="2803890" user="awengraf">
    <tag k="addr:city" v="Jerez de la Frontera"/>
    <tag k="addr:housenumber" v="5"/>
    <tag k="addr:postcode" v="11406"/>
    <tag k="addr:street" v="Plaza Princi-Jerez"/>
    <tag k="amenity" v="school"/>
    <tag k="contact:email" v="info@queensenglish.es"/>
    <tag k="contact:facebook" v="https://www.facebook.com/QueensEnglishInstitute"/>
    <tag k="contact:linkedin" v="https://www.linkedin.com/company/2707083"/>
    <tag k="contact:twitter" v="@QueensEnglishES"/>
    <tag k="name" v="Queen's English Institute"/>
    <tag k="payment:american_express" v="no"/>
    <tag k="payment:bitcoin" v="yes"/>
    <tag k="payment:diners_club" v="no"/>
    <tag k="payment:discover_card" v="no"/>
    <tag k="payment:maestro" v="no"/>
    <tag k="payment:mastercard" v="no"/>
    <tag k="payment:notes" v="yes"/>
    <tag k="payment:visa" v="no"/>
    <tag k="phone" v="+34 856 08 36 94"/>
    <tag k="website" v="http://www.queensenglish.es"/>
    <tag k="wheelchair" v="yes"/>
    <tag k="wifi" v="yes"/>
  </node>
  <node id="3442788832" lat="36.5611851" lon="-4.6183182" version="1" timestamp="2015-04-07T13:38:45Z" changeset="30039936" uid="24440" user="jaakkoh">
    <tag k="amenity" v="school"/>
    <tag k="name" v="Colegio Finlandes"/>
    <tag k="name:fi" v="Suomalainen koulu"/>
  </node>
  <node id="3444517470" lat="36.5028926" lon="-4.6843809" version="1" timestamp="2015-04-08T09:54:46Z" changeset="30059108" uid="2595123" user="NachoCarral">
    <tag k="amenity" v="school"/>
    <tag k="name" v="CIO Mijas"/>
  </node>
  <node id="3447148812" lat="35.7895028" lon="-5.8183775" version="2" timestamp="2015-07-05T19:56:24Z" changeset="32434144" uid="96382" user="malta-dinger">
    <tag k="amenity" v="hospital"/>
    <tag k="name" v="hôpital al kortobi"/>
  </node>
  <node id="3455665097" lat="37.7634634" lon="-3.7372748" version="2" timestamp="2015-04-14T15:18:06Z" changeset="30215038" uid="438945" user="José Luis Mesa">
    <tag k="amenity" v="hospital"/>
    <tag k="name" v="Residencia de Ancianos &quot;Virgen de la Capilla&quot;"/>
  </node>
  <node id="3505204450" lat="37.2796374" lon="-6.9210928" version="1" timestamp="2015-05-08T15:35:58Z" changeset="30910761" uid="462218" user="usuariogb7">
    <tag k="amenity" v="hospital"/>
    <tag k="name" v="Hospital Vázquez Díaz"/>
  </node>
  <node id="3508456246" lat="37.4848716" lon="-5.9462639" version="1" timestamp="2015-05-10T12:47:35Z" changeset="30962977" uid="2428704" user="David Blanco">
    <tag k="amenity" v="school"/>
  </node>
  <node id="3518913713" lat="36.6998699" lon="-4.4413836" version="1" timestamp="2015-05-15T08:27:39Z" changeset="31164806" uid="2894931" user="CPrados">
    <tag k="amenity" v="school"/>
    <tag k="name" v="CEIP Constitución 1978"/>
  </node>
  <node id="3518913714" lat="36.6979227" lon="-4.4420496" version="1" timestamp="2015-05-15T08:27:39Z" changeset="31164806" uid="2894931" user="CPrados">
    <tag k="amenity" v="school"/>
    <tag k="name" v="IES Ciudad de Melilla"/>
  </node>
  <node id="3536017437" lat="36.7169056" lon="-4.4417481" version="1" timestamp="2015-05-22T12:52:17Z" changeset="31370599" uid="2894931" user="CPrados">
    <tag k="amenity" v="hospital"/>
    <tag k="name" v="Centro de Salud de Carranque"/>
  </node>
  <node id="3592003179" lat="37.8954154" lon="-4.7995869" version="1" timestamp="2015-06-13T11:18:17Z" changeset="31941523" uid="1224997" user="Jesús Abad">
    <tag k="amenity" v="school"/>
    <tag k="name" v="Kids&amp;Us"/>
  </node>
  <node id="3615178127" lat="37.9330780" lon="-5.7608690" version="1" timestamp="2015-06-24T13:12:44Z" changeset="32183194" uid="691714" user="MoiArcSan">
    <tag k="amenity" v="school"/>
    <tag k="fee" v="yes"/>
    <tag k="name" v="C.D.P. Santa Clara"/>
  </node>
  <node id="3615178128" lat="37.9260706" lon="-5.7611638" version="1" timestamp="2015-06-24T13:12:44Z" changeset="32183194" uid="691714" user="MoiArcSan">
    <tag k="amenity" v="school"/>
    <tag k="name" v="C.E.I.P. Virgen del Monte"/>
  </node>
  <node id="3615178131" lat="37.9290812" lon="-5.7591948" version="1" timestamp="2015-06-24T13:12:45Z" changeset="32183194" uid="691714" user="MoiArcSan">
    <tag k="amenity" v="school"/>
    <tag k="name" v="Residencia Escolar"/>
  </node>
  <node id="3617297587" lat="37.4125801" lon="-4.4897211" version="2" timestamp="2015-06-26T16:53:13Z" changeset="32229108" uid="1725439" user="Begavil84">
    <tag k="amenity" v="school"/>
    <tag k="name" v="Escuela Infantil &quot;Burbujitas&quot;"/>
  </node>
  <node id="3617297588" lat="37.4090408" lon="-4.4828645" version="2" timestamp="2015-06-26T16:53:13Z" changeset="32229108" uid="1725439" user="Begavil84">
    <tag k="amenity" v="school"/>
    <tag k="name" v="Escuela Infantil &quot;El Canguro&quot;"/>
  </node>
  <node id="3617396556" lat="37.4100668" lon="-4.4819481" version="1" timestamp="2015-06-25T11:53:04Z" changeset="32203375" uid="1725439" user="Begavil84">
    <tag k="amenity" v="school"/>
    <tag k="name" v="Escuela Municipal de Música y Danza"/>
  </node>
  <node id="3622328196" lat="36.1414400" lon="-5.6985749" version="2" timestamp="2015-07-11T07:31:49Z" changeset="32559236" uid="2093638" user="DiegoOSM">
    <tag k="amenity" v="hospital"/>
    <tag k="name" v="Centro Medico"/>
  </node>
  <node id="3641435548" lat="36.1830996" lon="-5.7582068" version="1" timestamp="2015-07-08T20:12:06Z" changeset="32504847" uid="2093638" user="DiegoOSM">
    <tag k="amenity" v="school"/>
    <tag k="name" v="Colegio Tahivilla"/>
  </node>
  <node id="3648990472" lat="37.3030862" lon="-6.3084865" version="4" timestamp="2015-07-16T14:19:42Z" changeset="32675577" uid="3058733" user="Lineas que unen">
    <tag k="amenity" v="school"/>
    <tag k="name" v="CEIP Beatriz de Cabrera"/>
  </node>
  <node id="3650396047" lat="37.2465939" lon="-7.2048499" version="1" timestamp="2015-07-14T10:41:52Z" changeset="32624171" uid="3062788" user="jprecreativo">
    <tag k="amenity" v="hospital"/>
    <tag k="name" v="Centro de Salud"/>
  </node>

</osm>
